<kml xmlns="http://www.opengis.net/kml/2.2"><Document>
<Placemark>
<ExtendedData>
  <Data name="COMNAME"><value>BUENA VISTA LAKE SHREW</value></Data>
  <Data name="SCINAME"><value>SOREX ORNATUS SSP RELICTUS</value></Data>
  <Data name="SPCODE"><value>A0DV</value></Data>
  <Data name="VIPCODE"><value>V01</value></Data>
  <Data name="UNIT"><value>4</value></Data>
  <Data name="SUBUNIT"><value></value></Data>
  <Data name="UNITNAME"><value>COLES LEVEE UNIT</value></Data>
  <Data name="SUBUNITNAM"><value></value></Data>
  <Data name="LEADOFFICE"><value>FF08ESMF00</value></Data>
  <Data name="COOPOFFICE"><value>NONE</value></Data>
  <Data name="COOPOFMORE"><value></value></Data>
  <Data name="FEDREG"><value>78FR39835</value></Data>
  <Data name="PUBDATE"><value>20130702</value></Data>
  <Data name="EFFECTDATE"><value>20130802</value></Data>
  <Data name="VACATEDATE"><value></value></Data>
  <Data name="ACCURACY"><value></value></Data>
  <Data name="SINGLMUTLI"><value>SINGLE</value></Data>
  <Data name="STATUS"><value>FINAL</value></Data></ExtendedData>
  <Polygon>
<outerBoundaryIs>
  <LinearRing><coordinates>-119.34147481340086,35.29631521432869
-119.34022358940999,35.29606680412081
-119.33959677490063,35.29573205287036
-119.33878397801507,35.29525132469463
-119.33661000647241,35.294588979231726
-119.33655299361432,35.29395573596284
-119.33642397597175,35.29349572934955
-119.33633769325141,35.293037018812925
-119.33592142416832,35.29277880352985
-119.33539199920469,35.29265749038958
-119.33470351976983,35.292741853285456
-119.33398496105578,35.292544626576145
-119.33318647763583,35.2922221751737
-119.33215297004558,35.29189258234793
-119.33160535723536,35.29170053247916
-119.33097544822043,35.29143581238732
-119.33046740744953,35.291315127582585
-119.33068899352544,35.290672803963965
-119.33055526353718,35.290317901084485
-119.33018730151835,35.289938340147756
-119.32965475108217,35.28941344109956
-119.32916493860321,35.288889838638525
-119.32886742122193,35.28837207855656
-119.32900354847435,35.28772716080211
-119.32828506950473,35.28705626969606
-119.32774462819243,35.286706543285334
-119.32709263965901,35.28598504080772
-119.32622543207107,35.285292074091636
-119.3256280508937,35.2847827290569
-119.32468254618536,35.28392949238251
-119.32425530405789,35.28344285924454
-119.32380749589807,35.28293805688278
-119.32321966262312,35.282218487410255
-119.32263025331613,35.281533951335206
-119.32200611148032,35.28019930168498
-119.32159233443473,35.279888489791205
-119.32091823841162,35.27965745904699
-119.32067299109472,35.27940440236279
-119.32038978056357,35.27904493706912
-119.31997607905366,35.27826048887484
-119.31958765021632,35.27786273281774
-119.31939466080024,35.27740076205724
-119.31952131285423,35.27696607112374
-119.31933857668062,35.27675000032799
-119.31898421900237,35.27607260898899
-119.31861875420364,35.27564046591552
-119.31778968685413,35.27505385723598
-119.31682610972025,35.27460347830638
-119.31647249411253,35.27438219396589
-119.3154567647892,35.273667085121275
-119.31414597232013,35.27285525716753
-119.3123392436578,35.27165989893154
-119.31063857522412,35.270485295652
-119.30910724503572,35.26935092660945
-119.30883672668622,35.2691847852336
-119.30830708626482,35.267659998576306
-119.30817746407298,35.26721749007834
-119.30752169074711,35.26705711586832
-119.30734378368133,35.26673592439968
-119.30724985376868,35.265978751421095
-119.3072437480345,35.265171636730216
-119.30720275290784,35.26466166827612
-119.30707075240501,35.26427171185014
-119.30689205634343,35.26396803766948
-119.30669677898598,35.26355860494647
-119.30675461898538,35.26322707646961
-119.30685676666631,35.26286181834684
-119.30675169961312,35.26234989141829
-119.30636672636295,35.261408402597816
-119.3058053281764,35.26058431257888
-119.30520600325204,35.25965380908262
-119.30472448241787,35.25895495032055
-119.30416470901827,35.25809581935332
-119.30379860302656,35.25768115768838
-119.30327757788008,35.25691091777667
-119.30292104038513,35.25628604358906
-119.30262379696696,35.25576823410019
-119.30236448933042,35.255356836159585
-119.30179376524204,35.25426931564351
-119.30139916030043,35.254011652334874
-119.30142928113395,35.25381961335843
-119.30152585913757,35.253576982618156
-119.30110129715163,35.25303773128279
-119.30065315662513,35.25207675136113
-119.30037523167378,35.2506648917961
-119.30033348198454,35.250172440628006
-119.3002458355291,35.24974875193566
-119.30008153856345,35.24912975567869
-119.30011484745961,35.2488676470001
-119.30030002695968,35.24855756196889
-119.30042481263773,35.246754566291266
-119.30044712359305,35.24626407600015
-119.30013797440627,35.2460090255501
-119.30031294824013,35.24545304113641
-119.30051963047522,35.24466998219375
-119.3004448931723,35.24349238673155
-119.30026020624095,35.2423815931353
-119.30031406570644,35.24213765511358
-119.30065825415943,35.24162193316255
-119.30146437720015,35.24082213394174
-119.30210987160794,35.2402630013662
-119.30247553688918,35.2392742985677
-119.30370228535126,35.23862768524142
-119.30376076956708,35.23875226731738
-119.30453474009538,35.23960040484249
-119.30431087440405,35.23982160519146
-119.30322880080071,35.24057790093734
-119.30221633862433,35.241213522583
-119.30146327754896,35.2417869057721
-119.30117518585253,35.24247976607591
-119.3011908087858,35.24307666925557
-119.30126889755488,35.24371056791745
-119.30128834913837,35.24469351026019
-119.30135688001114,35.24553761924924
-119.30134462114427,35.24674763579543
-119.30130383600859,35.248114656299215
-119.30122447914907,35.248919155154866
-119.30114177481005,35.25026735032175
-119.30116440640276,35.25118022179829
-119.30147182667288,35.251943932382744
-119.30169781411126,35.252617440717565
-119.30236350944533,35.25349736461193
-119.3028417948891,35.2542663002114
-119.30379600236941,35.25585671980553
-119.30443401821853,35.256876122125
-119.30487201600583,35.25759119277531
-119.30549506916452,35.25846979725945
-119.30606507284362,35.25957482209741
-119.30691738503431,35.26105685344125
-119.30755308927107,35.26212879627871
-119.30775779064928,35.26280164451146
-119.30789841976173,35.26347253468992
-119.3079346450279,35.264087608867186
-119.30824535111108,35.2647812373509
-119.30854027253667,35.26535158944132
-119.30885973918058,35.26585252303314
-119.30898379470526,35.2664176543274
-119.30921703493854,35.26693349496906
-119.30948345093205,35.267660851670726
-119.30981395035082,35.26839016511702
-119.31041259025271,35.26933816947243
-119.31108645733613,35.27004288098989
-119.31179441768599,35.27046795880396
-119.31245886977449,35.27090924670325
-119.31314707423662,35.27129863011412
-119.31389539424671,35.27177755360638
-119.31499891354967,35.272442726412415
-119.31635243143192,35.27325584784056
-119.31778983493865,35.274106595415596
-119.31883012816425,35.274752265873516
-119.31941317590045,35.27510332714661
-119.31981581215572,35.275659394051964
-119.32005311173565,35.27608762988147
-119.32020893242827,35.27642567369114
-119.32042725404717,35.27680070488905
-119.32051581698866,35.27720686781161
-119.32066688111557,35.277650018145046
-119.3207942040463,35.27814507124994
-119.32092866844118,35.27848246387824
-119.3211707408547,35.278805591260216
-119.3215409921112,35.27913262112059
-119.32272219712584,35.279975512896506
-119.32321746741748,35.28037651129444
-119.32390659804501,35.28074832300647
-119.32454745979678,35.28124145643114
-119.3247420717065,35.28166838527822
-119.32480850334477,35.28209141436625
-119.32493347864366,35.282639018442055
-119.32518980949065,35.28312045026321
-119.32543111929724,35.28346108866879
-119.3260253205128,35.28404050573061
-119.32749227959377,35.285190258520736
-119.3282139044247,35.285791081330565
-119.32928765866586,35.28664818906089
-119.32986450368354,35.28713935098183
-119.33042078196272,35.28761234352244
-119.33093750178814,35.288013964002076
-119.33126668566645,35.28830463465585
-119.33149062683877,35.28855702429146
-119.33185700702813,35.28897161732711
-119.33225346015902,35.289194160034086
-119.33261430428539,35.289257742027615
-119.33334945037454,35.28956073177894
-119.33406481801165,35.289828032850885
-119.33467652343177,35.29002201616155
-119.33539506239812,35.2902192375645
-119.33610807219033,35.29053908150306
-119.33646418411516,35.29070776106128
-119.33695721739716,35.2911612648726
-119.33709018685362,35.291533680500024
-119.33734503513331,35.292050128217475
-119.33785230315242,35.29218830305875
-119.33807785568743,35.29240564599026
-119.33833271268635,35.29292209210847
-119.33850052468335,35.29347098334158
-119.33869049577216,35.294003003986845
-119.33930781511668,35.29454797664873
-119.3399488793949,35.2950410396372
-119.3413081301454,35.29548936081622
-119.34153012653005,35.29556257992426
-119.34184953285346,35.295610518495536
-119.34192812016794,35.29568900959792
-119.34208211518984,35.295758074941624
-119.34221326716889,35.29585864916574
-119.34226043142813,35.29600059012583
-119.34241588583512,35.29611653682644
-119.34293041982717,35.296187736193666
-119.34324275919091,35.29622939339402
-119.34347876932655,35.296300939963714
-119.34375929186318,35.29641481638858
-119.34396493367008,35.296526425658186
-119.34439033897803,35.29667395949289
-119.34463467969141,35.29679844828983
-119.34475236316598,35.29688104817784
-119.34503329675557,35.29706519058965
-119.34527024483923,35.29719530915518
-119.34557628587677,35.29745632119002
-119.3456677072548,35.297646437638186
-119.34574987898854,35.29780407332311
-119.34585251210596,35.297903780970216
-119.34613213595709,35.298117154868216
-119.34642484065921,35.29835727000366
-119.34684885495308,35.298774069844384
-119.34759965185133,35.29938810107816
-119.34801731980826,35.299708102544265
-119.34821346185049,35.29979307152658
-119.34839348415701,35.29983949725747
-119.34848660875221,35.29991256915852
-119.3485262441388,35.29998402390916
-119.34872067797147,35.30010699605171
-119.34898128799256,35.300267096565655
-119.34947383556623,35.30051031816619
-119.34994365897906,35.300703086065354
-119.35024057376307,35.30077060576243
-119.35062994234406,35.300846772980364
-119.35093543601732,35.30088234929245
-119.3512703779725,35.30089832297208
-119.35144235299046,35.30096499264871
-119.35157774835221,35.30105104861823
-119.35160220315109,35.30114253537606
-119.35164557589196,35.30136925197462
-119.35169328492532,35.301499496783435
-119.35184084331568,35.30163275759292
-119.35229682824502,35.30189535521443
-119.35265268430383,35.302081743537194
-119.3529591424072,35.30225492980214
-119.35352620876762,35.302509167726086
-119.35423962037999,35.302764893349575
-119.35457404635683,35.30279255194189
-119.35491759552096,35.3028556132647
-119.35531192369851,35.303139757977135
-119.35587959608662,35.30361941022737
-119.35607181910879,35.303792069463334
-119.35638067643764,35.30399166602933
-119.35672603042458,35.304332876125024
-119.35687347115694,35.304469054939005
-119.35726978228627,35.30470934302163
-119.35752685862363,35.30486931931951
-119.35774208368676,35.30508658021141
-119.35801885410038,35.305285205148145
-119.35831435088414,35.3053848638183
-119.35841805857231,35.30546117492384
-119.35857712113288,35.305577210664566
-119.35900094881467,35.305920780682875
-119.35913995222309,35.30608597616607
-119.3592011538617,35.306234189312285
-119.3592883688538,35.30635976770586
-119.35932156521874,35.30649542711996
-119.35934463804632,35.30677714951413
-119.3593453950362,35.307078690734784
-119.35935417734393,35.30728094352756
-119.35933600281733,35.307447255346055
-119.35924665777763,35.307687533106844
-119.35920034556945,35.30784421455732
-119.35915033564424,35.30800371187008
-119.35912332258236,35.30820781288443
-119.35910488487993,35.30837997142315
-119.35904420009423,35.30861818562969
-119.35898705648184,35.30877746777175
-119.35896570771725,35.3089349016917
-119.35889838917466,35.309082167564455
-119.35889051867579,35.30925757199206
-119.35898633647356,35.30943024781313
-119.35917842314508,35.30952678706986
-119.35967158343756,35.309758278319336
-119.35990224685888,35.30987061610208
-119.36009021898555,35.30989970059398
-119.36021265811728,35.3098770445541
-119.36038300831162,35.30974166513656
-119.36048163601376,35.30961290611014
-119.3607039082102,35.309514219301604
-119.36091458952396,35.309514713179034
-119.36114472983287,35.30963874230682
-119.36129465109207,35.30964033211915
-119.36140324421315,35.30968751441733
-119.36162819183582,35.3096884368847
-119.36183664553323,35.30973862725464
-119.36202860563904,35.309838085632656
-119.36221065324,35.30991968093923
-119.36245931245602,35.31010866751306
-119.36282734135271,35.310184154109194
-119.36353936799033,35.310481283926016
-119.3638027159902,35.31060511405723
-119.36432091601263,35.31082575854536
-119.36416268582899,35.31104882045178
-119.36398595020981,35.311271324959606
-119.36350804205564,35.31159867337286
-119.36339320068879,35.311473708301016
-119.36319644896605,35.31131589973809
-119.36304357968928,35.31121257170169
-119.3628622742089,35.31112357542657
-119.36262545580387,35.31103290689901
-119.3623063880716,35.310916977914474
-119.36209698753377,35.310834728430585
-119.36180771822407,35.31067413072626
-119.36150062592665,35.31049780702817
-119.36120380740836,35.310299009609984
-119.36107563809769,35.310264771005734
-119.36083270214695,35.310310609903794
-119.36053051148923,35.3104381985197
-119.36027594138737,35.31053684487283
-119.3600261335992,35.31052931578395
-119.35979755198998,35.310461672608845
-119.35949767587904,35.31033112649173
-119.35936984766614,35.31028930220088
-119.35922113345427,35.31030000732372
-119.35903609139609,35.31029442868852
-119.35886166273396,35.31025879308523
-119.35861355786501,35.310213341588344
-119.3583753861091,35.31015300077526
-119.35821531573501,35.31000388468712
-119.35807511154565,35.309824990825454
-119.357989058515,35.309678106544816
-119.35795164850275,35.30947952999147
-119.35798961595393,35.309252849937685
-119.35805772157222,35.30897391954054
-119.3581261669994,35.30868740516113
-119.35824087124381,35.30840228564533
-119.35832509638419,35.30817700029191
-119.35837537663886,35.30788234378023
-119.35836225522357,35.30755539879257
-119.35836974231833,35.30738855279658
-119.35841423633251,35.3072228226619
-119.35846451536396,35.30692816602083
-119.35846581311726,35.306692785834265
-119.35843595279064,35.306532407875665
-119.35833241968187,35.306362214298886
-119.35812984172819,35.306128280646256
-119.35794134363762,35.30599349549659
-119.35772304925639,35.30590337649725
-119.3575308082159,35.30585201372349
-119.35738686766366,35.30575654242225
-119.35729809639241,35.30567032912408
-119.35720313742405,35.30551558161088
-119.3570317836977,35.30541168889976
-119.35680730443752,35.30525303424099
-119.35662942394349,35.30508819076282
-119.356298014619,35.304835179421254
-119.35604918915148,35.30459984725402
-119.35575274603991,35.30439345447788
-119.35555772898407,35.30419771578557
-119.35520884570026,35.30392139185481
-119.35495662023057,35.30376189661946
-119.3545066580785,35.30346733182317
-119.35428564940926,35.303437878252936
-119.35395328506516,35.30341265684794
-119.35368806478056,35.30333630254192
-119.35346978271019,35.30324617652852
-119.3532881653277,35.30316475134429
-119.35293316059747,35.303024931180545
-119.35274263389275,35.30293564201145
-119.35238899450067,35.302765484897975
-119.35205454066052,35.30258071795204
-119.35169199412877,35.30240269568823
-119.35125714502718,35.302184517340955
-119.35094942671091,35.30202333760667
-119.35046969050863,35.30177342374522
-119.3499992083764,35.30152378771632
-119.34947356445453,35.30126488853768
-119.3491213041785,35.30106438730018
-119.3488225044473,35.30091106609814
-119.34847915715298,35.300718426654626
-119.3480371226842,35.300454455047486
-119.34742615037155,35.30003349019253
-119.34707765484661,35.29974956151835
-119.34664692903768,35.29944036222999
-119.34627205208605,35.29912525681852
-119.345958518942,35.29888794759225
-119.34553534563257,35.29861694375531
-119.34519983851287,35.298327707360166
-119.34488029718517,35.29796680891805
-119.34460274263878,35.297702107131016
-119.34424382124305,35.2974444347393
-119.34390290514018,35.297301218416486
-119.34365449477704,35.29716080149128
-119.34329387091137,35.296941045559116
-119.34275980424854,35.296716037078816
-119.34232724462129,35.2965510562285
-119.34199533610598,35.29646506346896
-119.34171953430426,35.29641873981111
-119.34147481340086,35.29631521432869</coordinates></LinearRing></outerBoundaryIs></Polygon></Placemark>
<Placemark>
<ExtendedData>
  <Data name="COMNAME"><value>BUENA VISTA LAKE SHREW</value></Data>
  <Data name="SCINAME"><value>SOREX ORNATUS SSP RELICTUS</value></Data>
  <Data name="SPCODE"><value>A0DV</value></Data>
  <Data name="VIPCODE"><value>V01</value></Data>
  <Data name="UNIT"><value>1</value></Data>
  <Data name="SUBUNIT"><value>A</value></Data>
  <Data name="UNITNAME"><value>KERN NATIONAL WILDLIFE REFUGE UNIT</value></Data>
  <Data name="SUBUNITNAM"><value></value></Data>
  <Data name="LEADOFFICE"><value>FF08ESMF00</value></Data>
  <Data name="COOPOFFICE"><value>NONE</value></Data>
  <Data name="COOPOFMORE"><value></value></Data>
  <Data name="FEDREG"><value>78FR39835</value></Data>
  <Data name="PUBDATE"><value>20130702</value></Data>
  <Data name="EFFECTDATE"><value>20130802</value></Data>
  <Data name="VACATEDATE"><value></value></Data>
  <Data name="ACCURACY"><value></value></Data>
  <Data name="SINGLMUTLI"><value>SINGLE</value></Data>
  <Data name="STATUS"><value>FINAL</value></Data></ExtendedData>
  <Polygon>
<outerBoundaryIs>
  <LinearRing><coordinates>-119.63892263749122,35.717647798754996
-119.63879783006402,35.71842429655929
-119.6380492599683,35.72007808715396
-119.63756924699858,35.72074356302071
-119.6372356613931,35.72128302343575
-119.63600888562334,35.720614039085625
-119.63560221160691,35.72045921574865
-119.63455423853387,35.72064591573016
-119.63430747933032,35.720774124039536
-119.6344687405064,35.72109806514346
-119.63453237665826,35.72150601318832
-119.6343071744293,35.722288696677246
-119.63403584861956,35.72319519267735
-119.63420924184179,35.72388727604805
-119.63453716987654,35.72469877611015
-119.63464798456245,35.726538386805096
-119.63521596624801,35.72701715117584
-119.63547892248071,35.72737979582148
-119.63544224135921,35.72778994146283
-119.63499749933462,35.72800435883886
-119.63465847679763,35.72838019499961
-119.63461909536535,35.728708531250604
-119.63465655235014,35.7313684313238
-119.6345602625709,35.73149334358613
-119.63436094219146,35.731538644774176
-119.63304042853682,35.73107635823579
-119.63248455165238,35.7309657267994
-119.63042367121872,35.73088802535489
-119.62911798636527,35.7308756469576
-119.62891193803753,35.73071641512643
-119.62764474306384,35.72882020404062
-119.62711754756708,35.72805397242064
-119.62700780879337,35.72776983009275
-119.62699840061386,35.72748349581521
-119.62714217479609,35.72727568348299
-119.62718830723098,35.72715187281464
-119.62718024269844,35.72690644344518
-119.62711932583751,35.72658030022796
-119.62705706557192,35.72621325203844
-119.62694732995472,35.7259291094613
-119.62708572584971,35.72555767762477
-119.62722412055776,35.72518624566274
-119.62726353171963,35.724857910449465
-119.62725412363217,35.72457157609202
-119.62709825881907,35.72441124419673
-119.62679593734013,35.724376914196704
-119.62645151465875,35.72458910866348
-119.62610977698253,35.72488311210405
-119.62561185305256,35.725482398682374
-119.6259391823738,35.723101507971045
-119.62610438403394,35.72189984105512
-119.62616669525548,35.72144658577049
-119.62703419655892,35.720933229455255
-119.6273123158114,35.72023127060762
-119.62765671800476,35.720019074427924
-119.62820175841016,35.71980249261193
-119.6284986852272,35.719673200201505
-119.62909388056795,35.71945551817827
-119.62953859371108,35.71924112372397
-119.62983282602724,35.71903001845585
-119.62977863151157,35.71890840073339
-119.62957261431644,35.718749168499535
-119.62916327173554,35.718512512632955
-119.62880812403019,35.718397473541266
-119.62775209429121,35.71833868425298
-119.62714884110807,35.71831092974286
-119.62660318880273,35.71827139475281
-119.62661271939231,35.71820206397273
-119.62669556575788,35.71759939054364
-119.63264745244089,35.71762188203595
-119.63892263749122,35.717647798754996</coordinates></LinearRing></outerBoundaryIs></Polygon></Placemark>
<Placemark>
<ExtendedData>
  <Data name="COMNAME"><value>BUENA VISTA LAKE SHREW</value></Data>
  <Data name="SCINAME"><value>SOREX ORNATUS SSP RELICTUS</value></Data>
  <Data name="SPCODE"><value>A0DV</value></Data>
  <Data name="VIPCODE"><value>V01</value></Data>
  <Data name="UNIT"><value>1</value></Data>
  <Data name="SUBUNIT"><value>B</value></Data>
  <Data name="UNITNAME"><value>KERN NATIONAL WILDLIFE REFUGE UNIT</value></Data>
  <Data name="SUBUNITNAM"><value></value></Data>
  <Data name="LEADOFFICE"><value>FF08ESMF00</value></Data>
  <Data name="COOPOFFICE"><value>NONE</value></Data>
  <Data name="COOPOFMORE"><value></value></Data>
  <Data name="FEDREG"><value>78FR39835</value></Data>
  <Data name="PUBDATE"><value>20130702</value></Data>
  <Data name="EFFECTDATE"><value>20130802</value></Data>
  <Data name="VACATEDATE"><value></value></Data>
  <Data name="ACCURACY"><value></value></Data>
  <Data name="SINGLMUTLI"><value>SINGLE</value></Data>
  <Data name="STATUS"><value>FINAL</value></Data></ExtendedData>
  <Polygon>
<outerBoundaryIs>
  <LinearRing><coordinates>-119.61821323163208,35.73201917855524
-119.61820886227389,35.73188577297182
-119.61800902925945,35.731783323451076
-119.6175827574391,35.731765903610984
-119.61705307603161,35.73159053205208
-119.61694791991113,35.7313792194513
-119.61681266181175,35.73124866231057
-119.61651379068911,35.73112166534127
-119.61627425343517,35.73080647550334
-119.61620094982764,35.73056776895185
-119.61619483775854,35.73038100078833
-119.61573672401688,35.7303909671799
-119.61521141953787,35.73034899283352
-119.6148091509689,35.73006403917957
-119.61460234584611,35.72974813397797
-119.61452468552932,35.72937602008533
-119.6145744233202,35.728894335396326
-119.61449938178764,35.72860226503073
-119.6143200688732,35.72812556031989
-119.61436719025058,35.72756383195255
-119.61490949014932,35.727124837514815
-119.61516515005351,35.72693237647046
-119.61511933890714,35.72653286998858
-119.61523800449426,35.72615648669337
-119.61565551801473,35.725907104174816
-119.61617468226763,35.72576230951844
-119.61673442355803,35.72585693127247
-119.61686792538563,35.725934126652554
-119.61695211501508,35.725505091713025
-119.61713446450892,35.725073920429864
-119.61751662592468,35.72474520049678
-119.61796946534285,35.72457514176052
-119.61852483111821,35.72453634971967
-119.6188502828769,35.7244758621974
-119.61913514878859,35.724175956287404
-119.61948020770107,35.72371453758152
-119.62002769846433,35.72343560880172
-119.6205158671583,35.72334487143122
-119.62123394472673,35.72327582106766
-119.62186261094004,35.72347571736338
-119.62246118569732,35.72375636695857
-119.62309073367172,35.72398293757806
-119.62348599497135,35.724054415505215
-119.62394319406063,35.72401774010766
-119.62456574192427,35.724030854566195
-119.62486109398314,35.72405110818609
-119.62499372407845,35.72410161334788
-119.62478276520163,35.725654825389036
-119.62431680034425,35.72542469420747
-119.62395162504264,35.72527246230892
-119.62355985908722,35.725307710326994
-119.62319993754171,35.725315562281445
-119.62277019964763,35.725191435233455
-119.62227502286537,35.72506873362655
-119.62157652913419,35.72473686137901
-119.62108048214141,35.72458747356067
-119.62056133562187,35.72473228873951
-119.6201490901744,35.72514177407683
-119.61960858159861,35.725634152737754
-119.61903184998387,35.72602051736282
-119.61853929410796,35.725977843750215
-119.61837044900659,35.725821319345
-119.61818548381406,35.72617244881824
-119.61794206439798,35.72673845195242
-119.6175297952584,35.72714792918457
-119.61697790387018,35.72729344205337
-119.6165481633976,35.72716929283186
-119.61655602191513,35.72740942338709
-119.61627026208859,35.72768264275578
-119.61601547571799,35.727901787300354
-119.61592604135846,35.72817073465778
-119.61609663324691,35.72838062479098
-119.61610536382177,35.72864743656088
-119.61607875352037,35.72883491668534
-119.6160530161796,35.729049077979624
-119.6161856498212,35.72909959271039
-119.61658005874968,35.72914441132476
-119.61703903843475,35.72916112317609
-119.61753947568948,35.7294439324091
-119.61778250798646,35.729865844292206
-119.61788853772642,35.730103837333054
-119.61809360892971,35.730366374023376
-119.61829431223606,35.73049550469146
-119.61859493141758,35.730675859451964
-119.6190547939674,35.73071924431868
-119.6195482536569,35.73078859563636
-119.61984975100201,35.73099562817187
-119.62009542389563,35.73149757780668
-119.62017136357704,35.73181632464916
-119.62017835978257,35.73202977324804
-119.61821323163208,35.73201917855524</coordinates></LinearRing></outerBoundaryIs></Polygon></Placemark>
<Placemark>
<ExtendedData>
  <Data name="COMNAME"><value>BUENA VISTA LAKE SHREW</value></Data>
  <Data name="SCINAME"><value>SOREX ORNATUS SSP RELICTUS</value></Data>
  <Data name="SPCODE"><value>A0DV</value></Data>
  <Data name="VIPCODE"><value>V01</value></Data>
  <Data name="UNIT"><value>1</value></Data>
  <Data name="SUBUNIT"><value>C</value></Data>
  <Data name="UNITNAME"><value>KERN NATIONAL WILDLIFE REFUGE UNIT</value></Data>
  <Data name="SUBUNITNAM"><value></value></Data>
  <Data name="LEADOFFICE"><value>FF08ESMF00</value></Data>
  <Data name="COOPOFFICE"><value>NONE</value></Data>
  <Data name="COOPOFMORE"><value></value></Data>
  <Data name="FEDREG"><value>78FR39835</value></Data>
  <Data name="PUBDATE"><value>20130702</value></Data>
  <Data name="EFFECTDATE"><value>20130802</value></Data>
  <Data name="VACATEDATE"><value></value></Data>
  <Data name="ACCURACY"><value></value></Data>
  <Data name="SINGLMUTLI"><value>SINGLE</value></Data>
  <Data name="STATUS"><value>FINAL</value></Data></ExtendedData>
  <Polygon>
<outerBoundaryIs>
  <LinearRing><coordinates>-119.62575781137248,35.71847627618384
-119.62563053035198,35.71837789117257
-119.62544043902422,35.718255586259005
-119.62509871403938,35.7182377550116
-119.62243021309826,35.71819481005784
-119.61495567805913,35.71818053009122
-119.60955997823257,35.71819656750831
-119.59941769717655,35.71816330383564
-119.58722585258145,35.7180468361974
-119.58024380323778,35.71791863304491
-119.58002604761317,35.717898013438415
-119.57986864458597,35.71782551621383
-119.57986049249543,35.71757277818855
-119.58125591793464,35.71756812752485
-119.58507192632214,35.71761262013103
-119.60749974798348,35.717786014483565
-119.62437100545722,35.7177983993693
-119.62564243826299,35.717795938318545
-119.62613894533602,35.717950394138
-119.62612327096453,35.71806441625153
-119.62609200728627,35.71829184104591
-119.62606567897983,35.71848336292167
-119.62575781137248,35.71847627618384</coordinates></LinearRing></outerBoundaryIs></Polygon></Placemark>
<Placemark>
<ExtendedData>
  <Data name="COMNAME"><value>BUENA VISTA LAKE SHREW</value></Data>
  <Data name="SCINAME"><value>SOREX ORNATUS SSP RELICTUS</value></Data>
  <Data name="SPCODE"><value>A0DV</value></Data>
  <Data name="VIPCODE"><value>V01</value></Data>
  <Data name="UNIT"><value>2</value></Data>
  <Data name="SUBUNIT"><value>B</value></Data>
  <Data name="UNITNAME"><value>GOOSE LAKE UNIT</value></Data>
  <Data name="SUBUNITNAM"><value></value></Data>
  <Data name="LEADOFFICE"><value>FF08ESMF00</value></Data>
  <Data name="COOPOFFICE"><value>NONE</value></Data>
  <Data name="COOPOFMORE"><value></value></Data>
  <Data name="FEDREG"><value>78FR39835</value></Data>
  <Data name="PUBDATE"><value>20130702</value></Data>
  <Data name="EFFECTDATE"><value>20130802</value></Data>
  <Data name="VACATEDATE"><value></value></Data>
  <Data name="ACCURACY"><value></value></Data>
  <Data name="SINGLMUTLI"><value>SINGLE</value></Data>
  <Data name="STATUS"><value>FINAL</value></Data></ExtendedData>
  <Polygon>
<outerBoundaryIs>
  <LinearRing><coordinates>-119.52546072316179,35.55723635360499
-119.52516207606263,35.557236405776216
-119.52476418320902,35.55723689176966
-119.52398712590883,35.55725635215159
-119.52340865729187,35.55725561051295
-119.52259336937414,35.557256006393246
-119.52225390021155,35.557260165747856
-119.52195613362403,35.55725954467255
-119.52110619903084,35.55727089761616
-119.52033984228791,35.557268702454294
-119.51978331601315,35.55726857736031
-119.51941694443634,35.557273945843136
-119.51901696004299,35.557266373772805
-119.51897617501858,35.55726803946604
-119.51885366338897,35.55709516927521
-119.51867124272916,35.55690084878672
-119.51811435154312,35.55671435422005
-119.51742191763834,35.556422615898605
-119.5160805565705,35.55582020634401
-119.5153898253043,35.555582456948834
-119.51498095354371,35.55519472359877
-119.51477820678919,35.55505485764212
-119.51475111660109,35.55489331341655
-119.51478954574702,35.5547123896474
-119.51493698556374,35.55449316640649
-119.51530075724224,35.55414334226999
-119.51633272737541,35.553311248890466
-119.51702238459387,35.55281051672119
-119.51723476876637,35.55255390989658
-119.51733476667556,35.55222760186595
-119.51730942952685,35.55141758339987
-119.51729084959365,35.55082356977873
-119.51725587424009,35.55041002035324
-119.51719718451876,35.54994292971704
-119.51709951065433,35.54963876291337
-119.51687474925113,35.549499360011794
-119.5165008736971,35.549525180300435
-119.51606148312179,35.54957037952431
-119.5157497457626,35.54946881479088
-119.51563399058725,35.54929110943114
-119.51546968392776,35.548970319919775
-119.51529919083069,35.548451525185875
-119.51537379197116,35.54801767549665
-119.51537444127794,35.547333198675496
-119.51515202835053,35.546563316505704
-119.5150679555316,35.54598868086644
-119.51507938497144,35.54494373485412
-119.51525960796916,35.54436358313959
-119.5152483594259,35.54400357390306
-119.51485145298751,35.54329136891756
-119.51394350653648,35.542445725972
-119.51326649284962,35.54193749216122
-119.51171764874127,35.54103314613077
-119.51114965504237,35.54048660322697
-119.51030043262763,35.53974670904956
-119.51006447129194,35.53960859754483
-119.5095269376968,35.539331595632596
-119.50894816615674,35.53914551091022
-119.50845917172637,35.53901159155334
-119.50807412612471,35.53867737233629
-119.50777325083922,35.5382153147328
-119.50738540927503,35.53779109006318
-119.50684677587407,35.537478074049545
-119.50631038772744,35.53723705786645
-119.50623703642671,35.53700442383109
-119.5062721172005,35.536715498211045
-119.50667765584313,35.53629278261622
-119.50701207989697,35.53570943463585
-119.50701672944035,35.53515095791012
-119.5067791385178,35.534597519561196
-119.50683119555488,35.53414613030839
-119.50668281628768,35.53362686064357
-119.50590663545773,35.532760399352014
-119.50547310885726,35.53228308046472
-119.50496680558034,35.53159112506314
-119.50458293073883,35.531292893562124
-119.50420297654003,35.53112066528418
-119.50384392563953,35.530911976980946
-119.50359573929137,35.530016517992266
-119.50351177301837,35.529441868780815
-119.50309470562202,35.52878407569224
-119.50256922216256,35.52818256879808
-119.50207191727885,35.52777860978588
-119.50186646815571,35.527548714305134
-119.50176552945892,35.52713652637675
-119.50173065135911,35.52672296729312
-119.50189618732419,35.52637729783038
-119.50211079323348,35.52619272032843
-119.50265401450375,35.52594728334233
-119.50304757033979,35.5258490502616
-119.50355290102607,35.52580253137564
-119.50419370550307,35.52586126981107
-119.50488134845502,35.52600909295953
-119.50505862450198,35.52604143355076
-119.50561191309379,35.52611999536728
-119.5058315489435,35.52609741743179
-119.50605118464601,35.52607483910088
-119.50624320026755,35.525872711793454
-119.50632567775274,35.52569087407443
-119.50627043813637,35.525331776901794
-119.50621575912028,35.52499068030829
-119.5060080663588,35.52468878940052
-119.50571005923382,35.524316726309486
-119.50529636212815,35.52376694393783
-119.5051784308599,35.52351722274052
-119.50490357025377,35.523180700988675
-119.50414561758461,35.52218775981235
-119.50411520681321,35.52191820698176
-119.50421634711584,35.52162790908789
-119.5044794485188,35.521586418592165
-119.50485487989388,35.521614642678
-119.50518907329636,35.521733784094366
-119.50538835831745,35.52176566701568
-119.50587948137562,35.521971606308554
-119.5062802930127,35.52210737206556
-119.50647845926753,35.52210325182644
-119.50660720985209,35.52199250093511
-119.50668856295938,35.52177466176287
-119.50687944714636,35.52153653250359
-119.50709850993789,35.52149595212528
-119.50752077905635,35.521613255207306
-119.50798467968238,35.52236012066992
-119.51048310034996,35.52479495949295
-119.51086012954896,35.52483999201816
-119.51121580254164,35.524940656513
-119.51190737696005,35.52521444334693
-119.51292238703572,35.5259678147625
-119.51349758547295,35.52674836120585
-119.5139373056817,35.52742365671681
-119.51399539032475,35.52787275144121
-119.51423639011819,35.52847370226116
-119.51481845501296,35.52882824335175
-119.51541009220381,35.52942831424335
-119.51762708519836,35.53197578816969
-119.5185292474549,35.53334388111979
-119.51886231874424,35.534129458161225
-119.51940604075523,35.534604423501214
-119.52017111373283,35.53511078246537
-119.52108584123802,35.535469908494704
-119.52158328662573,35.535873782672596
-119.52277808384345,35.53673137683357
-119.52340540066879,35.53776295086001
-119.52357761093843,35.53833573482562
-119.52350249595946,35.53875158767638
-119.5235160358832,35.539183596387446
-119.52408579317854,35.539784079063715
-119.52518863128618,35.540517487882816
-119.52602438498731,35.541166423642444
-119.52649252396175,35.541336732223094
-119.52687878579783,35.541706889371866
-119.52721309330721,35.54182596455292
-119.52794782426336,35.54193609616596
-119.52889762164784,35.54213285930328
-119.53015017480344,35.5427189820533
-119.53113799646708,35.543231992266406
-119.53143665609163,35.5436826333848
-119.53199127407655,35.544499539909516
-119.53224316573271,35.544800453443386
-119.53269327811635,35.54509720072883
-119.53347149338187,35.54531500063726
-119.534490280719,35.545473699815524
-119.53518153994484,35.545729341448556
-119.53592252321091,35.546164053691
-119.5366403551835,35.54656322430612
-119.5371588366985,35.546930563513264
-119.53778404188283,35.54718758038075
-119.53935007250102,35.54722663956384
-119.54095958466671,35.54724674943221
-119.54254039883551,35.54775376908742
-119.54285443364108,35.54792726364179
-119.5434452830138,35.54849118053153
-119.54367520432614,35.54879253255226
-119.54357361146873,35.54906485787106
-119.5431044131854,35.54956108624238
-119.54227313522624,35.54975874710858
-119.54086237074345,35.54975247745922
-119.5400485651774,35.5498056580913
-119.53784431273228,35.549798063836214
-119.53744671851592,35.54977041238429
-119.53652948994733,35.549339420510876
-119.53506447298282,35.549010006869594
-119.53360853299344,35.54896857798305
-119.53213566474858,35.549089596157295
-119.53030755392572,35.54912799545377
-119.52659711175484,35.54958410248393
-119.52537497119486,35.54996996323349
-119.52455154278509,35.550419508078306
-119.52380208579098,35.55111966826575
-119.52367839597271,35.55139244090894
-119.52379868768539,35.551714140194704
-119.5239641622183,35.55207091725027
-119.52435611385113,35.552621083377446
-119.52443066320329,35.55288970371243
-119.5242499272467,35.55345186616657
-119.5241459974698,35.55435465008167
-119.52422167181928,35.55536174438141
-119.52432502749012,35.55584590676976
-119.52497229605113,35.55680500008911
-119.52546072316179,35.55723635360499</coordinates></LinearRing></outerBoundaryIs></Polygon></Placemark>
<Placemark>
<ExtendedData>
  <Data name="COMNAME"><value>BUENA VISTA LAKE SHREW</value></Data>
  <Data name="SCINAME"><value>SOREX ORNATUS SSP RELICTUS</value></Data>
  <Data name="SPCODE"><value>A0DV</value></Data>
  <Data name="VIPCODE"><value>V01</value></Data>
  <Data name="UNIT"><value>7</value></Data>
  <Data name="SUBUNIT"><value></value></Data>
  <Data name="UNITNAME"><value>LEMOORE WETLAND RESERVE UNIT</value></Data>
  <Data name="SUBUNITNAM"><value></value></Data>
  <Data name="LEADOFFICE"><value>FF08ESMF00</value></Data>
  <Data name="COOPOFFICE"><value>NONE</value></Data>
  <Data name="COOPOFMORE"><value></value></Data>
  <Data name="FEDREG"><value>78FR39835</value></Data>
  <Data name="PUBDATE"><value>20130702</value></Data>
  <Data name="EFFECTDATE"><value>20130802</value></Data>
  <Data name="VACATEDATE"><value></value></Data>
  <Data name="ACCURACY"><value></value></Data>
  <Data name="SINGLMUTLI"><value>SINGLE</value></Data>
  <Data name="STATUS"><value>FINAL</value></Data></ExtendedData>
  <Polygon>
<outerBoundaryIs>
  <LinearRing><coordinates>-119.85104795419947,36.26371209656611
-119.85106303678131,36.267107484862116
-119.84964354318025,36.26974924398796
-119.83747482667502,36.26963228702329
-119.85104795419947,36.26371209656611</coordinates></LinearRing></outerBoundaryIs></Polygon></Placemark>
<Placemark>
<ExtendedData>
  <Data name="COMNAME"><value>BUENA VISTA LAKE SHREW</value></Data>
  <Data name="SCINAME"><value>SOREX ORNATUS SSP RELICTUS</value></Data>
  <Data name="SPCODE"><value>A0DV</value></Data>
  <Data name="VIPCODE"><value>V01</value></Data>
  <Data name="UNIT"><value>6</value></Data>
  <Data name="SUBUNIT"><value></value></Data>
  <Data name="UNITNAME"><value>SEMITROPIC ECOLOGICAL RESERVE UNIT</value></Data>
  <Data name="SUBUNITNAM"><value></value></Data>
  <Data name="LEADOFFICE"><value>FF08ESMF00</value></Data>
  <Data name="COOPOFFICE"><value>NONE</value></Data>
  <Data name="COOPOFMORE"><value></value></Data>
  <Data name="FEDREG"><value>78FR39835</value></Data>
  <Data name="PUBDATE"><value>20130702</value></Data>
  <Data name="EFFECTDATE"><value>20130802</value></Data>
  <Data name="VACATEDATE"><value></value></Data>
  <Data name="ACCURACY"><value></value></Data>
  <Data name="SINGLMUTLI"><value>SINGLE</value></Data>
  <Data name="STATUS"><value>FINAL</value></Data></ExtendedData>
  <Polygon>
<outerBoundaryIs>
  <LinearRing><coordinates>-119.62001182192758,35.63027100322967
-119.61766875081892,35.630242183501785
-119.61469554269752,35.63021441951011
-119.61203582161644,35.63020672783756
-119.60675213457257,35.63019127945728
-119.60678963398605,35.62752204247098
-119.60685303784823,35.623009412357014
-119.60689463495842,35.619298470908845
-119.60238657596291,35.61922707309752
-119.60242719650164,35.61597589836351
-119.6070117555952,35.61597555586873
-119.60892397570531,35.61597536348808
-119.61010135748258,35.61599085492178
-119.61156486216653,35.615998783248834
-119.61330794444774,35.6160154994368
-119.61485129008523,35.61605140152192
-119.61576234867717,35.61606135932036
-119.61614555504606,35.61608278041365
-119.61598099889487,35.61624996258435
-119.6154432410906,35.61670288769331
-119.61569045346376,35.61683633540079
-119.61570296092782,35.61833827182357
-119.61570313431413,35.61927528882386
-119.61571403085303,35.62072768194248
-119.61571676283756,35.622115801020236
-119.61508917509008,35.62242194323204
-119.6150244327203,35.622671238470616
-119.6149951282453,35.622890017290274
-119.61499641955197,35.62292965148367
-119.61497999172335,35.622984543874786
-119.61518991445534,35.623277450985235
-119.61534280666729,35.6234972298853
-119.61573900514973,35.62356686256601
-119.61571787582604,35.62375695665929
-119.61586622427349,35.6239071147923
-119.61583043908362,35.624800292356696
-119.61607294503733,35.625009756828746
-119.6162975166546,35.62529769550379
-119.61630146215767,35.625523498466045
-119.61629781539756,35.62562118394343
-119.61603881101436,35.62574393968926
-119.61604808891977,35.62655247539423
-119.61620969421925,35.626585217400745
-119.6162085393368,35.62686411739853
-119.6165865736504,35.627249115280755
-119.61723975813096,35.62790142777317
-119.61771610346528,35.628367946945495
-119.61840436992438,35.62841990925896
-119.61857385548689,35.62837996917193
-119.61875685489578,35.628440129764755
-119.61893985456443,35.62850029006699
-119.61908648996594,35.6285974949108
-119.61917532353219,35.6288075069737
-119.61917996249615,35.62894963209754
-119.61952079017608,35.62944976819018
-119.61976850618132,35.629818069701294
-119.62009045437495,35.630262839915076
-119.62001182192758,35.63027100322967</coordinates></LinearRing></outerBoundaryIs></Polygon></Placemark>
<Placemark>
<ExtendedData>
  <Data name="COMNAME"><value>BUENA VISTA LAKE SHREW</value></Data>
  <Data name="SCINAME"><value>SOREX ORNATUS SSP RELICTUS</value></Data>
  <Data name="SPCODE"><value>A0DV</value></Data>
  <Data name="VIPCODE"><value>V01</value></Data>
  <Data name="UNIT"><value>2</value></Data>
  <Data name="SUBUNIT"><value>A</value></Data>
  <Data name="UNITNAME"><value>GOOSE LAKE UNIT</value></Data>
  <Data name="SUBUNITNAM"><value></value></Data>
  <Data name="LEADOFFICE"><value>FF08ESMF00</value></Data>
  <Data name="COOPOFFICE"><value>NONE</value></Data>
  <Data name="COOPOFMORE"><value></value></Data>
  <Data name="FEDREG"><value>78FR39835</value></Data>
  <Data name="PUBDATE"><value>20130702</value></Data>
  <Data name="EFFECTDATE"><value>20130802</value></Data>
  <Data name="VACATEDATE"><value></value></Data>
  <Data name="ACCURACY"><value></value></Data>
  <Data name="SINGLMUTLI"><value>SINGLE</value></Data>
  <Data name="STATUS"><value>FINAL</value></Data></ExtendedData>
  <Polygon>
<outerBoundaryIs>
  <LinearRing><coordinates>-119.5190241837465,35.55750408826229
-119.51923385221485,35.55750003169713
-119.52011252575434,35.557501490392276
-119.5209085702119,35.55749457157356
-119.52176582075649,35.55748343140579
-119.5220339887836,35.55749117669578
-119.52228030203715,35.55749629560544
-119.52276865599242,35.557492446065645
-119.52346692742789,35.557488670947365
-119.52411156541,35.557483343709386
-119.5246757529604,35.557475691304134
-119.52472155644533,35.55748898098717
-119.52529635664033,35.557461685520245
-119.52566751542712,35.55745933800763
-119.52579410848944,35.557706394476014
-119.52595395461623,35.557883164876024
-119.52653312847444,35.55801971947867
-119.52704689057083,35.55829253908122
-119.52770744887246,35.55869583771285
-119.52770301435554,35.559035748131635
-119.52768117550139,35.56070977629991
-119.52799421434746,35.561082556044816
-119.52904488422016,35.5622493056165
-119.53061692831028,35.56317093858817
-119.53101628716018,35.56325261045762
-119.53172122464805,35.56323779997291
-119.53196751271304,35.56335870912638
-119.53316737553534,35.56436017655262
-119.53392156833388,35.56520889656662
-119.53430685009303,35.565543022154294
-119.53462150752421,35.56573453571107
-119.53526548121029,35.5658830950442
-119.5355761701774,35.56594860513788
-119.53754956280764,35.567708262853444
-119.53948964397419,35.56910834758404
-119.54057881710472,35.569391588850266
-119.54200870146818,35.569991847985335
-119.54344071289269,35.569961624385236
-119.54368305307663,35.569956507941384
-119.5439056397636,35.57002385615016
-119.54401978023012,35.570147530013834
-119.54402547425106,35.5703275298486
-119.54392158236178,35.57052785572697
-119.54366119471932,35.57065943779077
-119.5433996676544,35.57075501934292
-119.54306976960021,35.57077999554454
-119.54265743769459,35.5709868307872
-119.54237160080586,35.57101087515993
-119.54210495000386,35.57094445394515
-119.54174789915255,35.570807891341424
-119.54063724057437,35.5705431263102
-119.53964129153007,35.57042002903854
-119.53882329856401,35.570347209546426
-119.53815782020699,35.570217135304354
-119.53797645904514,35.57005884773384
-119.5375742205374,35.56988720034846
-119.53681324257578,35.56952497345513
-119.53581323409,35.568573375375834
-119.53492226701488,35.56758345005984
-119.53433302773742,35.567073496673316
-119.53388675108427,35.56690276276742
-119.53341787907475,35.566714490226005
-119.53321167043259,35.56646665719758
-119.532735434138,35.566044379852336
-119.53213325639368,35.565822880214085
-119.53144466153859,35.56565722944158
-119.53007875217568,35.564983449431885
-119.52960876751435,35.56475916077684
-119.52934441058824,35.56476471076392
-119.52901622805719,35.56484364827036
-119.52844854602971,35.5650176716706
-119.52762433286732,35.5650674158056
-119.52745437517497,35.56494847057554
-119.52696123669757,35.564688632930746
-119.52632857391926,35.56419756150173
-119.52557785930449,35.56345679167722
-119.52473565201586,35.56260986134434
-119.5244357152859,35.562183855196494
-119.52442272379058,35.56176984872396
-119.5244984129981,35.56137199632914
-119.5243668054639,35.56069029320734
-119.52402112704674,35.560211207678755
-119.52383981619774,35.56005289650359
-119.5232026816081,35.56012027679672
-119.52263332480076,35.560240271123845
-119.52141438880672,35.56073410042625
-119.52116699538901,35.56057716799551
-119.52065131068612,35.560299762994845
-119.5205129353471,35.56010452418973
-119.52046041931128,35.559835440663015
-119.52029606967437,35.559514659918555
-119.52013228524284,35.559211879229856
-119.51992895572158,35.55905402246118
-119.51946185098056,35.558919693202476
-119.51921503054291,35.5587807566954
-119.51907327995796,35.55847751374891
-119.5190608813776,35.55808150567762
-119.5190241837465,35.55750408826229</coordinates></LinearRing></outerBoundaryIs></Polygon></Placemark>
<Placemark>
<ExtendedData>
  <Data name="COMNAME"><value>BUENA VISTA LAKE SHREW</value></Data>
  <Data name="SCINAME"><value>SOREX ORNATUS SSP RELICTUS</value></Data>
  <Data name="SPCODE"><value>A0DV</value></Data>
  <Data name="VIPCODE"><value>V01</value></Data>
  <Data name="UNIT"><value>5</value></Data>
  <Data name="SUBUNIT"><value>A</value></Data>
  <Data name="UNITNAME"><value>KERN LAKE UNIT</value></Data>
  <Data name="SUBUNITNAM"><value></value></Data>
  <Data name="LEADOFFICE"><value>FF08ESMF00</value></Data>
  <Data name="COOPOFFICE"><value>NONE</value></Data>
  <Data name="COOPOFMORE"><value></value></Data>
  <Data name="FEDREG"><value>78FR39835</value></Data>
  <Data name="PUBDATE"><value>20130702</value></Data>
  <Data name="EFFECTDATE"><value>20130802</value></Data>
  <Data name="VACATEDATE"><value></value></Data>
  <Data name="ACCURACY"><value></value></Data>
  <Data name="SINGLMUTLI"><value>SINGLE</value></Data>
  <Data name="STATUS"><value>FINAL</value></Data></ExtendedData>
  <Polygon>
<outerBoundaryIs>
  <LinearRing><coordinates>-119.05400089229414,35.11069778429501
-119.05433086692699,35.11103732128073
-119.05543630819338,35.112016627841385
-119.05637367505528,35.11285527718318
-119.05638821773165,35.11286795386464
-119.04804138673018,35.11301777552478
-119.04802508056947,35.111472481662474
-119.04882949873311,35.111318798885144
-119.04955719742195,35.11125338266153
-119.05027709719218,35.111294336889095
-119.05070060107765,35.111557636006516
-119.05097815420939,35.11168817229612
-119.05116270243788,35.11168103371267
-119.0513279595289,35.11163718004568
-119.05156506187667,35.11151434291764
-119.05181242698454,35.111268373475305
-119.05218722423925,35.110901420690475
-119.0525120895964,35.110640136405316
-119.05283505171097,35.11048476951163
-119.05330819401404,35.110539867579156
-119.05373373145409,35.11068504442481
-119.05400089229414,35.11069778429501</coordinates></LinearRing></outerBoundaryIs></Polygon></Placemark>
<Placemark>
<ExtendedData>
  <Data name="COMNAME"><value>BUENA VISTA LAKE SHREW</value></Data>
  <Data name="SCINAME"><value>SOREX ORNATUS SSP RELICTUS</value></Data>
  <Data name="SPCODE"><value>A0DV</value></Data>
  <Data name="VIPCODE"><value>V01</value></Data>
  <Data name="UNIT"><value>5</value></Data>
  <Data name="SUBUNIT"><value>B</value></Data>
  <Data name="UNITNAME"><value>KERN LAKE UNIT</value></Data>
  <Data name="SUBUNITNAM"><value></value></Data>
  <Data name="LEADOFFICE"><value>FF08ESMF00</value></Data>
  <Data name="COOPOFFICE"><value>NONE</value></Data>
  <Data name="COOPOFMORE"><value></value></Data>
  <Data name="FEDREG"><value>78FR39835</value></Data>
  <Data name="PUBDATE"><value>20130702</value></Data>
  <Data name="EFFECTDATE"><value>20130802</value></Data>
  <Data name="VACATEDATE"><value></value></Data>
  <Data name="ACCURACY"><value></value></Data>
  <Data name="SINGLMUTLI"><value>SINGLE</value></Data>
  <Data name="STATUS"><value>FINAL</value></Data></ExtendedData>
  <Polygon>
<outerBoundaryIs>
  <LinearRing><coordinates>-119.04777072989204,35.11751016632546
-119.04394530715352,35.11752248138015
-119.04389999175447,35.116008117673665
-119.04386657676717,35.11467396701068
-119.04383588426595,35.1132181183078
-119.04400185124507,35.11303737875372
-119.04422546733818,35.11279385704948
-119.04447381773906,35.112691164107765
-119.04486465095184,35.11252955288176
-119.04535303630055,35.112331258764634
-119.04582351518216,35.112148164456165
-119.04652117806081,35.11189832126076
-119.04709179527772,35.11170250837515
-119.04746236542012,35.111580061110075
-119.04763164388459,35.11154815051514
-119.04765335254095,35.11155365162471
-119.04769758930146,35.11347090014757
-119.04777072989204,35.11751016632546</coordinates></LinearRing></outerBoundaryIs></Polygon></Placemark></Document></kml>