<kml xmlns="http://www.opengis.net/kml/2.2"><Document>
<Placemark>
<ExtendedData>
  <Data name="SINGLMULTI"><value>SINGLE</value></Data>
  <Data name="COMNAME"><value>CALIFORNIA CONDOR</value></Data>
  <Data name="SCINAME"><value>GYMNOGYPS CALIFORNIANUS</value></Data>
  <Data name="SPCODE"><value>B002</value></Data>
  <Data name="VIPCODE"><value>V01</value></Data>
  <Data name="UNIT"><value></value></Data>
  <Data name="SUBUNIT"><value></value></Data>
  <Data name="UNITNAME"><value>HI MOUNTAIN-BEARTRAP CONDOR AREA - EAST UNIT</value></Data>
  <Data name="SUBUNITNAM"><value></value></Data>
  <Data name="STATUS"><value>FINAL</value></Data>
  <Data name="LEADOFFICE"><value>FF08EVEN00</value></Data>
  <Data name="COOPOFFICE"><value>None</value></Data>
  <Data name="COOPOFMORE"><value></value></Data>
  <Data name="FEDREG"><value>32FR4001</value></Data>
  <Data name="PUBDATE"><value>19670311</value></Data>
  <Data name="EFFECTDATE"><value>19670411</value></Data>
  <Data name="VACATEDATE"><value></value></Data>
  <Data name="ACCURACY"><value></value></Data></ExtendedData>
  <Polygon>
<outerBoundaryIs>
  <LinearRing><coordinates>-120.20186061629431,35.32634317044278
-120.20204743597691,35.32308007080462
-120.16559982666286,35.32344152147084
-120.1658372607929,35.27943457516693
-120.2013865836077,35.279160809490804
-120.20137654253989,35.275278643230706
-120.21899241781085,35.27520929954227
-120.23715293209682,35.275149418332205
-120.23727321586534,35.28963326800488
-120.23735599914261,35.304304123813154
-120.23739849234744,35.318963593188414
-120.22847381883469,35.319013117161944
-120.22840990697944,35.326294553502066
-120.20186061629431,35.32634317044278</coordinates></LinearRing></outerBoundaryIs></Polygon></Placemark>
<Placemark>
<ExtendedData>
  <Data name="SINGLMULTI"><value>SINGLE</value></Data>
  <Data name="COMNAME"><value>CALIFORNIA CONDOR</value></Data>
  <Data name="SCINAME"><value>GYMNOGYPS CALIFORNIANUS</value></Data>
  <Data name="SPCODE"><value>B002</value></Data>
  <Data name="VIPCODE"><value>V01</value></Data>
  <Data name="UNIT"><value></value></Data>
  <Data name="SUBUNIT"><value></value></Data>
  <Data name="UNITNAME"><value>MT. PINOS CONDOR AREA</value></Data>
  <Data name="SUBUNITNAM"><value></value></Data>
  <Data name="STATUS"><value>FINAL</value></Data>
  <Data name="LEADOFFICE"><value>FF08EVEN00</value></Data>
  <Data name="COOPOFFICE"><value>None</value></Data>
  <Data name="COOPOFMORE"><value></value></Data>
  <Data name="FEDREG"><value>32FR4001</value></Data>
  <Data name="PUBDATE"><value>19670311</value></Data>
  <Data name="EFFECTDATE"><value>19670411</value></Data>
  <Data name="VACATEDATE"><value></value></Data>
  <Data name="ACCURACY"><value></value></Data></ExtendedData>
  <Polygon>
<outerBoundaryIs>
  <LinearRing><coordinates>-119.12693824187949,34.827795169106935
-119.12689586667943,34.798459901960086
-119.19866622382995,34.7988342511091
-119.19858733257087,34.82824340550354
-119.19860785817121,34.82827008024918
-119.12693824187949,34.827795169106935</coordinates></LinearRing></outerBoundaryIs></Polygon></Placemark>
<Placemark>
<ExtendedData>
  <Data name="SINGLMULTI"><value>SINGLE</value></Data>
  <Data name="COMNAME"><value>CALIFORNIA CONDOR</value></Data>
  <Data name="SCINAME"><value>GYMNOGYPS CALIFORNIANUS</value></Data>
  <Data name="SPCODE"><value>B002</value></Data>
  <Data name="VIPCODE"><value>V01</value></Data>
  <Data name="UNIT"><value></value></Data>
  <Data name="SUBUNIT"><value></value></Data>
  <Data name="UNITNAME"><value>MATILIJA CONDOR AREA</value></Data>
  <Data name="SUBUNITNAM"><value></value></Data>
  <Data name="STATUS"><value>FINAL</value></Data>
  <Data name="LEADOFFICE"><value>FF08EVEN00</value></Data>
  <Data name="COOPOFFICE"><value>None</value></Data>
  <Data name="COOPOFMORE"><value></value></Data>
  <Data name="FEDREG"><value>32FR4001</value></Data>
  <Data name="PUBDATE"><value>19670311</value></Data>
  <Data name="EFFECTDATE"><value>19670411</value></Data>
  <Data name="VACATEDATE"><value></value></Data>
  <Data name="ACCURACY"><value></value></Data></ExtendedData>
  <Polygon>
<outerBoundaryIs>
  <LinearRing><coordinates>-119.40400356492569,34.551869741234896
-119.38642418792693,34.551847208656284
-119.38044475009292,34.551990862346486
-119.38077249915449,34.53859689989281
-119.37584771239244,34.53862067611203
-119.35445989929661,34.53853900384951
-119.35420332780171,34.50898281378056
-119.37701614907729,34.50912713469296
-119.38578053335465,34.50902843738629
-119.39013993096296,34.509051420275625
-119.39008495304654,34.51270366035135
-119.39008937519498,34.51270357384368
-119.39006161483701,34.51631857038507
-119.39424958699874,34.516345399806255
-119.40304209567552,34.51644322800172
-119.40733468680452,34.516520992280334
-119.40728105670348,34.5199568292453
-119.4248881285817,34.51984300078897
-119.42467785500611,34.52400314699372
-119.44224184113881,34.52403188921494
-119.44236856726093,34.53232322392017
-119.4479779465081,34.532292063825196
-119.4478804787114,34.53854656600055
-119.45112255180175,34.538470954845195
-119.45120696312432,34.55160489085807
-119.44767520504087,34.551715577812786
-119.44744370810827,34.567957233872335
-119.4037782932021,34.56788722116204
-119.4038852377426,34.56032603178767
-119.40400356492569,34.551869741234896</coordinates></LinearRing></outerBoundaryIs></Polygon></Placemark>
<Placemark>
<ExtendedData>
  <Data name="SINGLMULTI"><value>SINGLE</value></Data>
  <Data name="COMNAME"><value>CALIFORNIA CONDOR</value></Data>
  <Data name="SCINAME"><value>GYMNOGYPS CALIFORNIANUS</value></Data>
  <Data name="SPCODE"><value>B002</value></Data>
  <Data name="VIPCODE"><value>V01</value></Data>
  <Data name="UNIT"><value></value></Data>
  <Data name="SUBUNIT"><value></value></Data>
  <Data name="UNITNAME"><value>HI MOUNTAIN-BEARTRAP CONDOR AREA - WEST UNIT</value></Data>
  <Data name="SUBUNITNAM"><value></value></Data>
  <Data name="STATUS"><value>FINAL</value></Data>
  <Data name="LEADOFFICE"><value>FF08EVEN00</value></Data>
  <Data name="COOPOFFICE"><value>None</value></Data>
  <Data name="COOPOFMORE"><value></value></Data>
  <Data name="FEDREG"><value>32FR4001</value></Data>
  <Data name="PUBDATE"><value>19670311</value></Data>
  <Data name="EFFECTDATE"><value>19670411</value></Data>
  <Data name="VACATEDATE"><value></value></Data>
  <Data name="ACCURACY"><value></value></Data></ExtendedData>
  <Polygon>
<outerBoundaryIs>
  <LinearRing><coordinates>-120.40882592912305,35.259923599918125
-120.4087331711927,35.249514313359725
-120.40972499626935,35.24953164432412
-120.40976153858617,35.22746289084688
-120.4364910419431,35.22717824830943
-120.45412006353229,35.227006622025385
-120.45412427373503,35.23427266611287
-120.46200557419422,35.23424161306508
-120.46220618455988,35.248772824109324
-120.46126546075197,35.248797378675874
-120.46170696985786,35.26107898787251
-120.45827421791614,35.26119666013574
-120.45444713175908,35.26129495286119
-120.43657723485597,35.26071800081661
-120.43094353192862,35.260655729696964
-120.4187221101106,35.2604713451625
-120.40882592912305,35.259923599918125</coordinates></LinearRing></outerBoundaryIs></Polygon></Placemark>
<Placemark>
<ExtendedData>
  <Data name="SINGLMULTI"><value>SINGLE</value></Data>
  <Data name="COMNAME"><value>CALIFORNIA CONDOR</value></Data>
  <Data name="SCINAME"><value>GYMNOGYPS CALIFORNIANUS</value></Data>
  <Data name="SPCODE"><value>B002</value></Data>
  <Data name="VIPCODE"><value>V01</value></Data>
  <Data name="UNIT"><value></value></Data>
  <Data name="SUBUNIT"><value></value></Data>
  <Data name="UNITNAME"><value>TEJON RANCH</value></Data>
  <Data name="SUBUNITNAM"><value></value></Data>
  <Data name="STATUS"><value>FINAL</value></Data>
  <Data name="LEADOFFICE"><value>FF08EVEN00</value></Data>
  <Data name="COOPOFFICE"><value>None</value></Data>
  <Data name="COOPOFMORE"><value></value></Data>
  <Data name="FEDREG"><value>32FR4001</value></Data>
  <Data name="PUBDATE"><value>19670311</value></Data>
  <Data name="EFFECTDATE"><value>19670411</value></Data>
  <Data name="VACATEDATE"><value></value></Data>
  <Data name="ACCURACY"><value></value></Data></ExtendedData>
  <Polygon>
<outerBoundaryIs>
  <LinearRing><coordinates>-118.6363301349574,35.00895339344248
-118.63628066804642,34.994095253608634
-118.52483134285347,34.99409813868289
-118.5252045940079,34.967846994301055
-118.52534823851335,34.93899717986994
-118.5252643081173,34.90581836928493
-118.56112470815225,34.90525400890073
-118.63637975557168,34.9053040933577
-118.71333405539411,34.90542580036765
-118.73134248167418,34.905014860672566
-118.73122707956225,34.862676521013384
-118.73127505329415,34.81789574518808
-118.74972001324642,34.81789409195767
-118.83660609557779,34.8174826432591
-118.83581262377152,34.87691037002071
-118.83527778550592,34.90651991018251
-118.83546334372244,34.90652178679352
-118.835464785765,34.9064205584354
-118.84737001452862,34.90664157812682
-118.8478123361707,34.89763949237198
-118.9533672403274,34.89762971397488
-118.95335317204263,34.92632768064084
-118.95340664818747,34.940778711432415
-118.9534048875139,34.98468894046033
-118.89996414003303,34.98475104258574
-118.86441825219589,34.98486429596022
-118.84611446490186,34.984536188375046
-118.75878429302725,34.98235070092716
-118.74119885252139,34.982312750675874
-118.74019039009534,35.071444309331355
-118.63737596381623,35.071294565764674
-118.63672033738328,35.03796038784964
-118.6363301349574,35.00895339344248</coordinates></LinearRing></outerBoundaryIs></Polygon></Placemark>
<Placemark>
<ExtendedData>
  <Data name="SINGLMULTI"><value>SINGLE</value></Data>
  <Data name="COMNAME"><value>CALIFORNIA CONDOR</value></Data>
  <Data name="SCINAME"><value>GYMNOGYPS CALIFORNIANUS</value></Data>
  <Data name="SPCODE"><value>B002</value></Data>
  <Data name="VIPCODE"><value>V01</value></Data>
  <Data name="UNIT"><value></value></Data>
  <Data name="SUBUNIT"><value></value></Data>
  <Data name="UNITNAME"><value>KERN COUNTY RANGELANDS</value></Data>
  <Data name="SUBUNITNAM"><value></value></Data>
  <Data name="STATUS"><value>FINAL</value></Data>
  <Data name="LEADOFFICE"><value>FF08EVEN00</value></Data>
  <Data name="COOPOFFICE"><value>None</value></Data>
  <Data name="COOPOFMORE"><value></value></Data>
  <Data name="FEDREG"><value>32FR4001</value></Data>
  <Data name="PUBDATE"><value>19670311</value></Data>
  <Data name="EFFECTDATE"><value>19670411</value></Data>
  <Data name="VACATEDATE"><value></value></Data>
  <Data name="ACCURACY"><value></value></Data></ExtendedData>
  <Polygon>
<outerBoundaryIs>
  <LinearRing><coordinates>-118.69369233125576,35.64402684135524
-118.69508384534043,35.61525147495627
-118.71258089940864,35.61531581192452
-118.73016743514626,35.61540675931673
-118.7482717742489,35.61541392962107
-118.76631648936677,35.61543713456712
-118.78224723635492,35.6153151823126
-118.80049774133875,35.61525551919817
-118.81806106049731,35.615735552970534
-118.83576148772642,35.615895119595336
-118.85351531362744,35.616186213675064
-118.87136232358614,35.616308666319526
-118.88839138064253,35.61650648635151
-118.90516150289926,35.61656683142462
-118.90496344458097,35.63092455800506
-118.9047036080812,35.64540434030499
-118.90457984181137,35.659926018201986
-118.90429150775907,35.67437387121993
-118.90391812616315,35.68866395463431
-118.90380348494227,35.70320459843748
-118.90362785032971,35.71780705760585
-118.90330730010271,35.74684439010133
-118.9030177913661,35.761462298945446
-118.9029029457576,35.77603423552745
-118.90272855609783,35.79054520213106
-118.8929768894406,35.79057620266724
-118.88523295267021,35.79052214174368
-118.86788204618512,35.79042359385096
-118.84944919113951,35.79032600294727
-118.83285533643561,35.790293401538236
-118.81584812695968,35.790262199415736
-118.79843698467698,35.790255689354126
-118.78068299690398,35.7902243698565
-118.76277531128977,35.79020159527465
-118.74449512524762,35.79013381466791
-118.72697769524848,35.79002130662184
-118.70909472000864,35.78990398959752
-118.69134229452658,35.78978379628279
-118.6911042432618,35.77529483241074
-118.69105091148282,35.76077583213049
-118.69145490179619,35.74620521496064
-118.69145673432058,35.731554250279885
-118.69137359893097,35.71685199654132
-118.69154757469266,35.702214007003136
-118.69206553127145,35.68782379752474
-118.69253292385594,35.673212561621426
-118.69311640365186,35.65866419327995
-118.69369233125576,35.64402684135524</coordinates></LinearRing></outerBoundaryIs></Polygon></Placemark>
<Placemark>
<ExtendedData>
  <Data name="SINGLMULTI"><value>SINGLE</value></Data>
  <Data name="COMNAME"><value>CALIFORNIA CONDOR</value></Data>
  <Data name="SCINAME"><value>GYMNOGYPS CALIFORNIANUS</value></Data>
  <Data name="SPCODE"><value>B002</value></Data>
  <Data name="VIPCODE"><value>V01</value></Data>
  <Data name="UNIT"><value></value></Data>
  <Data name="SUBUNIT"><value></value></Data>
  <Data name="UNITNAME"><value>BLUE RIDGE CONDOR AREA</value></Data>
  <Data name="SUBUNITNAM"><value></value></Data>
  <Data name="STATUS"><value>FINAL</value></Data>
  <Data name="LEADOFFICE"><value>FF08EVEN00</value></Data>
  <Data name="COOPOFFICE"><value>None</value></Data>
  <Data name="COOPOFMORE"><value></value></Data>
  <Data name="FEDREG"><value>32FR4001</value></Data>
  <Data name="PUBDATE"><value>19670311</value></Data>
  <Data name="EFFECTDATE"><value>19670411</value></Data>
  <Data name="VACATEDATE"><value></value></Data>
  <Data name="ACCURACY"><value></value></Data></ExtendedData>
  <Polygon>
<outerBoundaryIs>
  <LinearRing><coordinates>-118.88482366775804,36.23773864486077
-118.88674704748775,36.313321878753925
-118.8683140712048,36.31281785644882
-118.84998277302458,36.31166030051395
-118.84896532298615,36.31159715823554
-118.84936951746687,36.29459907369812
-118.831523902291,36.29456931005075
-118.83164573456793,36.280119725677594
-118.81396813022008,36.28027848778311
-118.81405164487398,36.26569875437286
-118.81396772084031,36.25140999510444
-118.81466171612874,36.2376391129028
-118.83288899606231,36.237737950030805
-118.84974270959873,36.23776056877301
-118.86682537084903,36.237761325685995
-118.88482366775804,36.23773864486077</coordinates></LinearRing></outerBoundaryIs></Polygon></Placemark>
<Placemark>
<ExtendedData>
  <Data name="SINGLMULTI"><value>SINGLE</value></Data>
  <Data name="COMNAME"><value>CALIFORNIA CONDOR</value></Data>
  <Data name="SCINAME"><value>GYMNOGYPS CALIFORNIANUS</value></Data>
  <Data name="SPCODE"><value>B002</value></Data>
  <Data name="VIPCODE"><value>V01</value></Data>
  <Data name="UNIT"><value></value></Data>
  <Data name="SUBUNIT"><value></value></Data>
  <Data name="UNITNAME"><value>SESPE-PIRU CONDOR AREA</value></Data>
  <Data name="SUBUNITNAM"><value></value></Data>
  <Data name="STATUS"><value>FINAL</value></Data>
  <Data name="LEADOFFICE"><value>FF08EVEN00</value></Data>
  <Data name="COOPOFFICE"><value>None</value></Data>
  <Data name="COOPOFMORE"><value></value></Data>
  <Data name="FEDREG"><value>32FR4001</value></Data>
  <Data name="PUBDATE"><value>19670311</value></Data>
  <Data name="EFFECTDATE"><value>19670411</value></Data>
  <Data name="VACATEDATE"><value></value></Data>
  <Data name="ACCURACY"><value></value></Data></ExtendedData>
  <Polygon>
<outerBoundaryIs>
  <LinearRing><coordinates>-119.25181905841191,34.66582487304589
-119.24729186401686,34.66575515934352
-119.24275813206901,34.66591078883556
-119.24302520709432,34.65161650971663
-119.18969180523209,34.65065681237388
-119.19017629134385,34.6325720218378
-119.15490269665611,34.63343486534933
-119.15535910789481,34.62493411046512
-119.15557045834635,34.61872764083961
-119.14527123304174,34.61881864682795
-119.12855141867891,34.61896453365358
-119.12584333578178,34.61898794694514
-119.05053774794061,34.62037640924888
-119.03304098709151,34.6202094985714
-119.03305228427769,34.625005739810774
-119.03245439910415,34.634788871567366
-119.00103046233829,34.634506133427806
-118.87621501570351,34.63424742915345
-118.85931627705389,34.633982574313166
-118.80503623258556,34.633109806519656
-118.76741275345358,34.63322789861098
-118.75085946079281,34.63288052725994
-118.74797227716266,34.63290389777649
-118.74705258576807,34.60389343413692
-118.74713693447052,34.60365780094878
-118.74711317612355,34.60345076450801
-118.74710959070626,34.60327950475636
-118.74714693681221,34.602882249702986
-118.74719136311592,34.588383269831695
-118.74706012695975,34.57386873948303
-118.74674396805267,34.559852725642486
-118.74616735485301,34.549987970497284
-118.7507053419169,34.54999513419148
-118.76372645530029,34.54975367645784
-118.76389836716527,34.52617321948412
-118.76980204236526,34.52623782921802
-118.7816419620147,34.52636654393922
-118.78166322320942,34.5250419022741
-118.78176138611764,34.51892625147195
-118.79917072377367,34.51919405539678
-118.79870327600071,34.49990581171454
-118.7985101442323,34.46788221816729
-118.81428107126175,34.467939267144914
-118.81428087769302,34.4679286992897
-118.81909957313115,34.46795626439064
-118.84789624068469,34.468111435309595
-118.85657002053853,34.468081525934736
-118.85795819340524,34.468075149343576
-118.85909308081489,34.46806666253747
-118.85906500797029,34.47162308608745
-118.86685979107187,34.47165456246785
-118.86688342272163,34.47813546186296
-118.8656386676343,34.47815415157072
-118.86571376431755,34.48616258022355
-118.86441070632185,34.48617344911139
-118.86433467102336,34.493522905909174
-118.8667638145692,34.49346392160305
-118.86689101379432,34.50781601326855
-118.86692631755909,34.51146871672739
-118.87585928245659,34.511480779551334
-118.8830952192211,34.51147390977087
-118.8830805583961,34.51388920682126
-118.88471876469475,34.5138955704233
-118.88991220670329,34.51394697822684
-118.89165831488708,34.513956018894646
-118.8918317207673,34.51396234999453
-118.89216912723862,34.51423662830092
-118.89229904040508,34.51435182730944
-118.89241016907397,34.514494365890585
-118.8924948926745,34.514628297159675
-118.89256688956374,34.51477144176732
-118.892637118067,34.514896581230346
-118.89269564062494,34.51503091825066
-118.8927412325827,34.515165455573594
-118.8927860076164,34.51530902177626
-118.89279777514196,34.51545309936898
-118.89276292355402,34.51559789925517
-118.89270724713055,34.515724989282376
-118.8926066526688,34.51585277517165
-118.89246556583333,34.515936107034804
-118.89231229774703,34.51599257869009
-118.89214616795249,34.516022200629834
-118.89198561683412,34.516087800928005
-118.8918388806677,34.51616220332659
-118.89168642891713,34.5162096453202
-118.89150593665767,34.516266537532886
-118.89133375048658,34.51626920341266
-118.89116673838475,34.51624474021378
-118.89100102063657,34.51620222425572
-118.89083646063096,34.5161506739031
-118.89067775253824,34.51611706525301
-118.89049243209803,34.51611091696401
-118.89035753456398,34.51621218314398
-118.89033574623613,34.51634776400749
-118.8903607810945,34.516491636584476
-118.8904719127612,34.516589095611835
-118.89062381276358,34.51666789111067
-118.89078313260029,34.516728539082465
-118.89095552042448,34.516779968319156
-118.89112654728558,34.51683141837651
-118.89131207295185,34.516846578742616
-118.8915054923757,34.51687964909371
-118.89171014155602,34.51691254524263
-118.89188926901625,34.516945836290745
-118.89206751231455,34.51697012452337
-118.89223370893149,34.517003615333294
-118.89241902921566,34.51705484215944
-118.89261666950517,34.51707882910489
-118.89280260346237,34.51711201334922
-118.89297478938465,34.517154426582465
-118.89313513259947,34.51721505557708
-118.89329166376484,34.51730279215974
-118.8934045687264,34.51741825342907
-118.89347439158598,34.51757044731289
-118.89351998636255,34.51770498420723
-118.89358456885407,34.51786627548
-118.89363560871772,34.51800072791747
-118.8937072704104,34.518143876896715
-118.89382548547388,34.51826827165729
-118.89397065317621,34.518365199712946
-118.89413542327554,34.51842575869796
-118.89431510013907,34.518422972637325
-118.8944742238337,34.518384440101784
-118.89463532145749,34.51832784427188
-118.89479601082934,34.51825322208987
-118.89494220344994,34.518169808334335
-118.89510854100621,34.51810411437185
-118.8952678677482,34.51807459390187
-118.89546149538126,34.518116670908114
-118.89557828384983,34.518223053591555
-118.89568316189741,34.518374702159576
-118.89576142921237,34.518508731120676
-118.89584616244161,34.518642659678505
-118.89594484817513,34.51877637162687
-118.89607572658332,34.51887351888581
-118.89620095634206,34.51896173744416
-118.8963059045372,34.51908633563727
-118.89637668695366,34.519220480351066
-118.89644815020648,34.51935461444782
-118.8965195457182,34.51951579824566
-118.89658393126763,34.51966807459468
-118.89663558979885,34.51982956473438
-118.89669977159474,34.51997282793957
-118.89673148872276,34.52012561141311
-118.89674986594588,34.520260569540085
-118.89684106842151,34.52039439686865
-118.8969790286261,34.52047340065087
-118.8971391766865,34.520525011000814
-118.89731035011846,34.52052235251671
-118.89747070142528,34.520492813204044
-118.89759184847321,34.520400769079174
-118.89767365516957,34.52025523860226
-118.89772081903965,34.52012827871005
-118.89774899339176,34.5199745651164
-118.89776328365502,34.519839099667365
-118.89779914883707,34.51969428280984
-118.89786686624785,34.51955798731814
-118.89798174926756,34.51942997522053
-118.89810214519179,34.5193199098191
-118.8982115827406,34.519191982122436
-118.89831843346906,34.519055078299004
-118.89840023767431,34.51890954738724
-118.898488371376,34.51877293428578
-118.89858269869478,34.518654257323476
-118.89869090934195,34.518517332048816
-118.89880565386,34.518398337582255
-118.89890542504918,34.51827957576148
-118.89898743198387,34.51814305754715
-118.8990289436203,34.51800716879478
-118.89901702899067,34.51787211055694
-118.8989861251892,34.517710298807685
-118.8989616870814,34.51754838653869
-118.89895031601526,34.51737725490858
-118.89895854606414,34.51721483481555
-118.89898671740434,34.5170611209702
-118.8990617128423,34.516915695462785
-118.89919557960155,34.51681443584698
-118.89935061265498,34.51673087946705
-118.89950339915305,34.51663834159439
-118.89963141127271,34.51651914008278
-118.89971164698079,34.516409697629285
-118.89972913028635,34.5162200849004
-118.89969039929326,34.51605839502008
-118.89965139692805,34.51591474180452
-118.89961402739442,34.51575303071718
-118.89966805878464,34.51559891459408
-118.89982914547465,34.515497231037614
-118.89996443902305,34.51541398088489
-118.90005835152124,34.515277276806955
-118.90006596766989,34.51513289863993
-118.8999892607963,34.51496278323691
-118.89992957016119,34.51483748430479
-118.89984598946933,34.514649443230155
-118.89978139784631,34.5144881554952
-118.89968536501488,34.51433637286357
-118.89961859651783,34.514184135110156
-118.89955482370141,34.51405889943692
-118.89950459349967,34.51391542069109
-118.89945272921028,34.51374491862009
-118.89944054168171,34.51358281587716
-118.89943624923222,34.51343862284915
-118.89939207594512,34.51327701739194
-118.89932809975721,34.513142768492116
-118.89925609302679,34.51299962816057
-118.89914454760049,34.512884151132255
-118.89903865128298,34.512777602420556
-118.89892805871932,34.51264407789432
-118.89880303921188,34.51251979372614
-118.8986856419412,34.51238637472369
-118.89857389376186,34.512261884049224
-118.89846296237033,34.51212836433308
-118.89837884519125,34.51202147656937
-118.89828662927448,34.511887665861934
-118.89820108310391,34.511762767688026
-118.89776532517061,34.51108430306061
-118.89768726649328,34.5109592881779
-118.89761628537906,34.510816130824196
-118.89750413246031,34.510673612881476
-118.89740021447966,34.51054899942045
-118.89728084889117,34.510433642000464
-118.89719612235933,34.510299714073426
-118.89709846611402,34.510165986852485
-118.89696794080942,34.510023753656924
-118.89683707569162,34.50988152558705
-118.89671260792841,34.50976624678583
-118.89663999629084,34.50964114659905
-118.8965548632521,34.50953427322901
-118.89646469467857,34.50940042922059
-118.89635860217209,34.50928486479785
-118.89625999566147,34.50916918408734
-118.89617568028939,34.50905328149139
-118.89609857884795,34.508910218133224
-118.89603971540066,34.50877588793344
-118.89596261446599,34.5086328244675
-118.89589000499325,34.5085077237452
-118.89579902192236,34.50838290807644
-118.89570783509396,34.508249079245616
-118.89559711780078,34.50812456960887
-118.8954721101531,34.50800028156766
-118.8953547247275,34.50786685889511
-118.89523672688102,34.50775147810185
-118.89515139365608,34.50763559051609
-118.89507980706776,34.50751047339247
-118.89500835699971,34.50737633785229
-118.89492425022979,34.5072243660602
-118.89485225648849,34.507081222594934
-118.89475637902876,34.5068753357055
-118.8947041203686,34.50673188608158
-118.89465914346505,34.5065793072568
-118.89465526920958,34.50640805852498
-118.8946697683503,34.50623652486928
-118.8947114184287,34.50609161892834
-118.89475898889219,34.50593760490585
-118.89479505843241,34.50580180173108
-118.89481697389664,34.505657201797305
-118.89481153341,34.50552204235811
-118.89474716435058,34.50532468299457
-118.89466305905239,34.505217792186386
-118.89457106085194,34.50509299119369
-118.89453329782395,34.50495833291825
-118.89455487335022,34.5048137382808
-118.89459795153886,34.50468684272363
-118.89461768935104,34.504551292824544
-118.8946328000988,34.50440679841432
-118.89466199697154,34.50425306931413
-118.89466336171239,34.50411780430761
-118.89463206358084,34.5039830457888
-118.89458668076503,34.503812440629304
-118.89455599585352,34.503659640058174
-118.89450476051508,34.50351617437474
-118.89442623900936,34.50335509921439
-118.89437684166063,34.50320258870869
-118.89433043915665,34.5030319992282
-118.89428036173189,34.50287949921358
-118.89421579087133,34.50271820760332
-118.89415047081377,34.50258397634309
-118.89406575773864,34.50245004566494
-118.89398104494222,34.50231611491671
-118.8938900718253,34.50219129739827
-118.89381849213521,34.5020661792193
-118.89374786603565,34.50192301369134
-118.89367526611392,34.50179791122855
-118.89361777485783,34.50161847699877
-118.89360764286965,34.501456341310984
-118.89365439623816,34.50131135654863
-118.89370291789407,34.5011843768861
-118.89378478161859,34.50105688044141
-118.89389903391901,34.50094691445241
-118.89405928376095,34.50085426787575
-118.89419898331357,34.500770955933376
-118.89433888641412,34.50069665694042
-118.8944471498346,34.500577767038976
-118.89448199347828,34.50043296662358
-118.89442388859084,34.50027157478837
-118.89433393786646,34.50014674168614
-118.89404883622564,34.50001591742557
-118.89400447253666,34.49998054008256
-118.89389839536472,34.4998649731333
-118.89383260101016,34.49973976550183
-118.89385961971243,34.499595086844124
-118.89390616727957,34.499441089247625
-118.89396659470299,34.49931392522535
-118.89406009213599,34.499159199836754
-118.89413242677807,34.499031851163636
-118.89423401993275,34.498904048882366
-118.89428682675373,34.498740937869286
-118.89431438849346,34.49860526693544
-118.89434861948519,34.49843342762591
-118.89434175181583,34.498280257948636
-118.89431630874986,34.49811835999276
-118.89428964131093,34.49794746476181
-118.89428917040959,34.49777616341305
-118.89424501595857,34.49761455549418
-118.89421814357246,34.49747972838776
-118.89419957273799,34.497335756338884
-118.89422556959101,34.4971910934151
-118.89428681185126,34.497054900354385
-118.89436642524146,34.49691842246085
-118.89442018249059,34.496782345373845
-118.89442134361434,34.49663806743757
-118.89441467996431,34.49649391080692
-118.89444067625095,34.49634924783999
-118.89454804937259,34.496221355707576
-118.89464181392151,34.496093674484655
-118.8947223789508,34.49593914911969
-118.8947951189798,34.49578474503886
-118.89486200653636,34.49565748040749
-118.89489548633725,34.495512701301266
-118.89492951013102,34.495376929995984
-118.8949887110478,34.49515060577937
-118.89521086314454,34.49514716054841
-118.89521487991402,34.49503890329282
-118.8954610506189,34.494999020112346
-118.89564707315174,34.49497810201683
-118.89602571568435,34.495107471268284
-118.89620316445433,34.49515881530948
-118.8963827907981,34.49520110905024
-118.89656867708766,34.49523428912249
-118.89672108755536,34.4952770047592
-118.89687254547454,34.495382848688564
-118.89701230077895,34.49549789033762
-118.897144367912,34.49564911614624
-118.89722887498249,34.49581911271025
-118.89730814312213,34.495953125584094
-118.89741387965535,34.496113776133484
-118.897520160711,34.49623835316311
-118.89762419665578,34.496353948717
-118.89774320200598,34.496469311695364
-118.89787724457312,34.496557392282284
-118.89807408989765,34.49665351344703
-118.8981347847203,34.49677879798975
-118.89816084673151,34.496922652960166
-118.89814050439713,34.497076245001665
-118.8981328857339,34.497220623154135
-118.8981516675372,34.497373607441034
-118.8982254953417,34.49750770414278
-118.89831667419315,34.497641531239594
-118.89843765529105,34.49773883029957
-118.89856816350925,34.49788106238668
-118.89864682385922,34.498033116188026
-118.8987005129975,34.49819457418579
-118.89877937722457,34.49831055977688
-118.89887055788085,34.49844438638286
-118.89895200845075,34.49856934789153
-118.89902971689537,34.49869436749702
-118.8991220548856,34.49881915967188
-118.8992203139461,34.49897992467123
-118.89931326573503,34.49913175584322
-118.89939859588475,34.49924764048001
-118.89949882870695,34.49939034208006
-118.89959062355263,34.49950612607154
-118.89968983636732,34.49964884335452
-118.89980197789822,34.499791359532765
-118.89990166740483,34.49992505298229
-118.9000200004711,34.50004042408375
-118.90018473783601,34.50010097609339
-118.90040255001043,34.50016070241435
-118.90044426153463,34.5001690699184
-118.90086464174937,34.50021662837332
-118.9012595680843,34.50014737018995
-118.9016282943004,34.500033437247794
-118.90167810215718,34.50002364582696
-118.90199661250949,34.499946558430736
-118.90214317545235,34.49988116336198
-118.90230967563463,34.499824473954675
-118.9024751549232,34.49976780021933
-118.90264675792673,34.49971103090934
-118.90283462186562,34.499635975684555
-118.9029791422588,34.49957061143914
-118.90312651957686,34.4994961863045
-118.90330567229665,34.49941224982291
-118.90345161869402,34.49931981414477
-118.9036235566291,34.49921795714937
-118.90374391654206,34.49910788729676
-118.90381119866294,34.498953563207806
-118.90385167307795,34.49881768922336
-118.9038790143203,34.498673003631325
-118.90393241665464,34.49853692818709
-118.90402589446728,34.49838219581068
-118.904120601383,34.49828154155847
-118.90414618307489,34.498254094242725
-118.90431152265307,34.49820643648644
-118.90447761621908,34.49822188032323
-118.90463024073665,34.49827359877139
-118.90478293517924,34.4983433483805
-118.90493392880211,34.498413124308286
-118.90508171671041,34.49840180402475
-118.90509263623898,34.498388109445386
-118.90521915400103,34.49830949895306
-118.90526044145173,34.498164595637945
-118.9052330059543,34.498020763861746
-118.90521319487675,34.49791287808608
-118.90521679753874,34.497876757023334
-118.90520160982334,34.497732734264105
-118.90519594805846,34.497588562973704
-118.90520232885495,34.49743518769304
-118.90526879144193,34.49728989183893
-118.90537036512899,34.49716208091371
-118.90548221462808,34.49705214211417
-118.90559644528753,34.496942166082135
-118.90573006744938,34.49683188752073
-118.90584981074528,34.496739857730915
-118.90596165421061,34.496584837487546
-118.90606784888217,34.496420889036244
-118.90610926917151,34.49626696714358
-118.90612959667118,34.49611337426455
-118.90616945079739,34.4959504605568
-118.90619080369186,34.49584193278548
-118.90620365642752,34.49577861872575
-118.90624269478917,34.495624733940645
-118.90629609151654,34.49548865759664
-118.90636377651708,34.49535235832309
-118.90642099021397,34.49527933594419
-118.90646432567269,34.49522456250952
-118.90660461295454,34.49512319527281
-118.90674326902632,34.49503988577908
-118.90693009808592,34.494964840610635
-118.90712203520741,34.494934796554276
-118.90732826606683,34.494949610206106
-118.907507486302,34.49497386136949
-118.90767221872295,34.495034403329385
-118.90782504438948,34.4950951309587
-118.9079962410587,34.49515557154672
-118.90816178944743,34.49520708386984
-118.90834788489923,34.49524925886294
-118.90851281759842,34.49527373165847
-118.90872571231353,34.49525237397273
-118.9088924103117,34.49524977002295
-118.90906319068768,34.49524710206731
-118.90927663078685,34.495234751121814
-118.90944843169325,34.49523206668226
-118.90961492410531,34.49522044874192
-118.9098001982307,34.495226569473175
-118.90999900952306,34.495214445898
-118.91019190268827,34.495211430728546
-118.91038547622378,34.49520840461781
-118.91056972972376,34.4952145401362
-118.91082134273375,34.4952196220778
-118.91102757465143,34.49523442943439
-118.91119447803561,34.49524083534362
-118.91137954654005,34.49523794067619
-118.91160353225689,34.49522542071389
-118.91177832348643,34.49520465379044
-118.9120030526181,34.49516507282948
-118.9121623288957,34.495135531907636
-118.91233228564249,34.49509680742358
-118.91250827449358,34.495024177503524
-118.91267253040849,34.49497427151164
-118.9127357987997,34.49492820013967
-118.91283335564702,34.494863559579244
-118.91296574683417,34.494789357415186
-118.91307459270001,34.49469749130736
-118.91312275765506,34.49466067240405
-118.91329078860002,34.49452279844189
-118.91344555136396,34.4943851320171
-118.91358500484614,34.4942477051419
-118.91371071581153,34.49411950954146
-118.91383145776007,34.49398237542886
-118.91392348881953,34.49385470709501
-118.91400531382101,34.49372719855262
-118.91405121245378,34.493591236479176
-118.9140716591312,34.493428624425576
-118.91406516810315,34.49329348293719
-118.91408466582925,34.49314891816192
-118.91409452221143,34.49310368272114
-118.91411321437783,34.493013227823496
-118.91419394604185,34.49286770386317
-118.91430462327554,34.49276679180667
-118.91446503951221,34.49268313284779
-118.91465873147104,34.49262600095193
-118.91486290666245,34.49259575311413
-118.91505585549169,34.49256568087003
-118.91522839290735,34.49253592822794
-118.91538037500953,34.49247043269253
-118.915541201731,34.4924047983302
-118.91566773138396,34.49231265278962
-118.91579976575326,34.49219337219654
-118.91597384871886,34.49208244841191
-118.91614616838393,34.49199860065937
-118.91631148812877,34.49195092727058
-118.91648967290257,34.49193010052312
-118.91665615731432,34.49191847323715
-118.91682250771055,34.491915864033956
-118.91702043364546,34.491939807893516
-118.91719387714238,34.49200921656109
-118.9173604556974,34.49210578130487
-118.9175050673889,34.49223875532459
-118.91762287725282,34.492390182156896
-118.91770217393218,34.492524180849216
-118.91781507696118,34.492639619662384
-118.91796029816715,34.492754551128144
-118.91812523939643,34.49282409186134
-118.91830487019405,34.49286635316105
-118.91847082098451,34.492890796556594
-118.9186697585485,34.49286964079323
-118.91885603631442,34.49283065109552
-118.91902836618732,34.49279188015424
-118.91921382951529,34.49276191890709
-118.91937289174064,34.49272335585812
-118.9195863230131,34.492710987162184
-118.91975165413726,34.49270838994926
-118.91994359281051,34.492723406872244
-118.9201431492603,34.49272928759484
-118.92032256162895,34.49271745214895
-118.92050762356087,34.49271454385013
-118.92068641587338,34.49267566902142
-118.92089888651651,34.492636264541034
-118.92111217080833,34.49258783070559
-118.92128952854307,34.49253094516149
-118.92145660716602,34.49245618859686
-118.92168335142287,34.492371477348854
-118.92182321452441,34.49229714826947
-118.92196892053852,34.492195678548796
-118.92212747979278,34.492075974097304
-118.92229977931436,34.4919470371093
-118.92246058555315,34.491836313087674
-118.92259982650432,34.491734944343534
-118.92276628171624,34.49163314725121
-118.92293899309408,34.491522235297964
-118.92309191381185,34.49143868313723
-118.92323782367959,34.491346224932556
-118.92335774622222,34.49126319177145
-118.92351752917887,34.49115248250263
-118.92369023854587,34.491041569547576
-118.92380567841701,34.49098565510616
-118.9239026152444,34.49093904805494
-118.92404914431427,34.49087362773935
-118.9247285113446,34.49053834653711
-118.92479299715427,34.49050126609029
-118.92495966918568,34.49045355982361
-118.92514070249808,34.490423659477585
-118.92531763842544,34.49034874246087
-118.92552341489602,34.490255338384884
-118.92573075877152,34.49017092546097
-118.92587503674423,34.49009652228045
-118.92607557634432,34.49001221601378
-118.92630034223345,34.4899455599317
-118.92647912557754,34.48990667690373
-118.92668493127724,34.48990343234351
-118.92691088166845,34.48991790217792
-118.9271020014408,34.48994193704499
-118.92726775719632,34.490002436376756
-118.92744120439318,34.490071830355134
-118.92756742571771,34.490114920434735
-118.92760594010741,34.4901323453052
-118.92779182510702,34.49016547783583
-118.92796455961138,34.49014472043115
-118.92815587091758,34.49013268586458
-118.92823476909444,34.46837534909429
-118.93714882347149,34.46838735059066
-118.93714879709898,34.46832457721621
-118.93722012271274,34.46566201168514
-118.93741168121682,34.45851111051297
-118.93750060850414,34.45519140755317
-118.93749998399801,34.45516436880928
-118.93752742909186,34.44424529071409
-118.95513452668945,34.444226516171625
-118.95526068287461,34.4369844937126
-118.95960965837389,34.43694193339746
-118.9768433245518,34.436817847351676
-118.9812807576588,34.43683619864123
-118.98131122577496,34.436844721169905
-119.00118701527566,34.43680059095857
-119.02472580977872,34.43761221006861
-119.02458866703358,34.43399904306466
-119.0771146310492,34.43409178005908
-119.07680404868069,34.46674370291828
-119.09478221466594,34.466734400731525
-119.09474453607339,34.473353416934
-119.09467556264002,34.48547995490355
-119.09459283216023,34.50004215102575
-119.09475065234159,34.533936588701465
-119.0948322288445,34.55138454945251
-119.09487978791361,34.56153429521265
-119.12575163016271,34.561361167274356
-119.15179561714865,34.56080648990633
-119.17398606358813,34.560329495712494
-119.19262390733934,34.5599257464404
-119.19180790839454,34.58900665723331
-119.25085716125994,34.58795862924853
-119.2798624803496,34.58822270915158
-119.27975037331333,34.59565347228897
-119.2972712085267,34.59558639829146
-119.29735349919474,34.61737487122684
-119.31468303189223,34.61749811872136
-119.31471638525937,34.625178486742016
-119.31471530088442,34.62528669036607
-119.31457310033846,34.62496483904391
-119.31411260481855,34.66625431252044
-119.27432645179573,34.66598371274068
-119.26612748273055,34.66592633264645
-119.25181905841191,34.66582487304589</coordinates></LinearRing></outerBoundaryIs></Polygon></Placemark>
<Placemark>
<ExtendedData>
  <Data name="SINGLMULTI"><value>SINGLE</value></Data>
  <Data name="COMNAME"><value>CALIFORNIA CONDOR</value></Data>
  <Data name="SCINAME"><value>GYMNOGYPS CALIFORNIANUS</value></Data>
  <Data name="SPCODE"><value>B002</value></Data>
  <Data name="VIPCODE"><value>V01</value></Data>
  <Data name="UNIT"><value></value></Data>
  <Data name="SUBUNIT"><value></value></Data>
  <Data name="UNITNAME"><value>SISQUOC-SAN RAFAEL CONDOR AREA</value></Data>
  <Data name="SUBUNITNAM"><value></value></Data>
  <Data name="STATUS"><value>FINAL</value></Data>
  <Data name="LEADOFFICE"><value>FF08EVEN00</value></Data>
  <Data name="COOPOFFICE"><value>None</value></Data>
  <Data name="COOPOFMORE"><value></value></Data>
  <Data name="FEDREG"><value>32FR4001</value></Data>
  <Data name="PUBDATE"><value>19670311</value></Data>
  <Data name="EFFECTDATE"><value>19670411</value></Data>
  <Data name="VACATEDATE"><value></value></Data>
  <Data name="ACCURACY"><value></value></Data></ExtendedData>
  <Polygon>
<outerBoundaryIs>
  <LinearRing><coordinates>-119.63406800326254,34.733789961925424
-119.63212268647385,34.6224537098517
-119.70340186323438,34.62062344631772
-119.70436743737508,34.69119552262174
-119.75105347216498,34.69162312238302
-119.75103971570235,34.69150625084802
-119.81002372396978,34.69132231678856
-119.8101670020518,34.734189042573064
-119.82006748979893,34.73448875592834
-119.81972644352106,34.74824439638593
-119.8190393905183,34.77779334209737
-119.64035504622115,34.77737088672467
-119.64048689307253,34.74884027756838
-119.64055637110448,34.73381055594842
-119.63406800326254,34.733789961925424</coordinates></LinearRing></outerBoundaryIs></Polygon></Placemark>
<Placemark>
<ExtendedData>
  <Data name="SINGLMULTI"><value>SINGLE</value></Data>
  <Data name="COMNAME"><value>CALIFORNIA CONDOR</value></Data>
  <Data name="SCINAME"><value>GYMNOGYPS CALIFORNIANUS</value></Data>
  <Data name="SPCODE"><value>B002</value></Data>
  <Data name="VIPCODE"><value>V01</value></Data>
  <Data name="UNIT"><value></value></Data>
  <Data name="SUBUNIT"><value></value></Data>
  <Data name="UNITNAME"><value>TULARE COUNTY RANGELANDS</value></Data>
  <Data name="SUBUNITNAM"><value></value></Data>
  <Data name="STATUS"><value>FINAL</value></Data>
  <Data name="LEADOFFICE"><value>FF08EVEN00</value></Data>
  <Data name="COOPOFFICE"><value>None</value></Data>
  <Data name="COOPOFMORE"><value></value></Data>
  <Data name="FEDREG"><value>32FR4001</value></Data>
  <Data name="PUBDATE"><value>19670311</value></Data>
  <Data name="EFFECTDATE"><value>19670411</value></Data>
  <Data name="VACATEDATE"><value></value></Data>
  <Data name="ACCURACY"><value></value></Data></ExtendedData>
  <Polygon>
<outerBoundaryIs>
  <LinearRing><coordinates>-118.88674704748775,36.313321878753925
-118.88482366775804,36.23773864486077
-118.88448042542745,36.22392966038399
-118.86683285874295,36.22354122816586
-118.84968910770868,36.223250568666344
-118.83256813468239,36.223128365906064
-118.81489818713908,36.223126912543705
-118.79725082133416,36.222960330326146
-118.7796719755114,36.222929753564586
-118.77932095606093,36.20808155138127
-118.77917582682431,36.193930931213174
-118.7790306933071,36.17976234828865
-118.77935063679126,36.16419855393849
-118.77928936462115,36.150037672723954
-118.77926000491635,36.135639770283035
-118.78887222240888,36.13580313750515
-118.78892544620078,36.121780215372894
-118.78916164995366,36.107040190828286
-118.7887188697133,36.09274962958358
-118.80667923805908,36.09294030551462
-118.82412083243793,36.09304142273692
-118.8416765318292,36.09320142386929
-118.85897311981927,36.09361980251049
-118.87612476412772,36.09445920677092
-118.89306261851993,36.094621300669075
-118.91070990991176,36.094713459477305
-118.92878485404322,36.09480503739513
-118.94677551526081,36.09449183644341
-118.96462144349778,36.09457497252913
-118.9817728492755,36.094635274460586
-118.99984775766029,36.094716181669526
-118.99999276532776,36.10900127766894
-119.0000537724066,36.12382641274303
-119.00013818761607,36.13833326828188
-118.99149330693331,36.1382338305213
-118.99160809565495,36.15249010733277
-118.99169953490377,36.16703745297963
-118.99215720164108,36.181357796055465
-118.99233251448487,36.19600731880786
-118.99253881707597,36.21044226978813
-118.99244699340261,36.22450569647782
-118.9923633847871,36.23853521920415
-118.99231026439617,36.253060030126505
-118.99202001654385,36.267910993270334
-118.99178396016617,36.28279718856584
-118.99163894571728,36.29718598044218
-118.99166955738133,36.30943107984547
-118.99154777184947,36.32390271943791
-118.99141045697104,36.33855734791234
-118.9913192958436,36.35329664986642
-118.99115116806746,36.3678141538652
-118.99128856256647,36.38217780900942
-118.9914644622952,36.39861854924459
-118.97519032851005,36.39906203186803
-118.95720007389622,36.39941421049576
-118.94052932461341,36.399550729823375
-118.92327865049032,36.39984083226034
-118.90580683015827,36.39999895305664
-118.88860206417218,36.40022916402586
-118.88813656346832,36.385739593214566
-118.88787693455146,36.37106880518502
-118.88761729505018,36.357801827735784
-118.88735808199579,36.34281096786765
-118.88700670079601,36.32723779480631
-118.88674704748775,36.313321878753925</coordinates></LinearRing></outerBoundaryIs></Polygon></Placemark></Document></kml>