<kml xmlns="http://www.opengis.net/kml/2.2"><Document>
<Placemark>
<ExtendedData>
  <Data name="Island"><value>OA</value></Data>
  <Data name="Status"><value>Final</value></Data>
  <Data name="COMNAME"><value>Haha</value></Data>
  <Data name="SCINAME"><value>Cyanea superba</value></Data>
  <Data name="SPCODE"><value>Q1V6</value></Data>
  <Data name="VIPCODE"><value>P01</value></Data>
  <Data name="UNIT"><value>01</value></Data>
  <Data name="SUBUNIT"><value></value></Data>
  <Data name="UNITNAME"><value>Lowland Mesic</value></Data>
  <Data name="SUBUNITNAM"><value></value></Data>
  <Data name="LEADOFFICE"><value>FF01EPIF00</value></Data>
  <Data name="COOPOFFICE"><value>None</value></Data>
  <Data name="COOPOFMORE"><value></value></Data>
  <Data name="FEDREG"><value>77FR57647</value></Data>
  <Data name="PUBDATE"><value>20120918</value></Data>
  <Data name="EFFECTDATE"><value>20121018</value></Data>
  <Data name="VACATEDATE"><value></value></Data>
  <Data name="ACCURACY"><value></value></Data></ExtendedData>
  <Polygon>
<outerBoundaryIs>
  <LinearRing><coordinates>-158.1773526650755,21.54503287934008
-158.1776718166755,21.543960425499712
-158.18023660600159,21.54255728484447
-158.18018937169177,21.541678298597528
-158.18108078609518,21.540901579532463
-158.1813469103789,21.539975322214953
-158.18181951540927,21.539440626428007
-158.1809865814968,21.539094798722612
-158.1801506364582,21.539285966285817
-158.17852647312654,21.540449622375206
-158.17732305660164,21.541029551295267
-158.17799862097618,21.541521050156415
-158.17762789806454,21.54249563179758
-158.17658179570702,21.54292982824473
-158.17653320631024,21.542294955752688
-158.1768509411167,21.541466580160197
-158.17685919902408,21.540002043572542
-158.17647090552754,21.539463112416623
-158.17720472067106,21.53888091054907
-158.17741700827244,21.538247287485113
-158.17647806500557,21.53819384488978
-158.17610840406164,21.538973117483867
-158.1755303013095,21.539702549462096
-158.17500298206778,21.540676351261563
-158.17510322098852,21.541409135482876
-158.17541268944797,21.542045298376927
-158.1753561075435,21.542826153151506
-158.17509273781837,21.5432642087402
-158.17399334826655,21.543893436321707
-158.17284592908553,21.543790093405953
-158.17232605064808,21.543445774688852
-158.1718592148521,21.542955252698256
-158.17123334038484,21.542903334199682
-158.17076702515666,21.542315193545967
-158.17071901597615,21.54158266708616
-158.16993715680374,21.541432312700316
-158.16941812706105,21.540941524371785
-158.1694228486404,21.54011164159536
-158.1695841141793,21.53928250134054
-158.1693262893906,21.538744204103445
-158.1692765819082,21.538304598649837
-158.16885971687043,21.538204866124183
-158.1679685349728,21.538932710648286
-158.16729075035238,21.538831709577643
-158.1668256177525,21.538048253073026
-158.16677703232523,21.537413378282793
-158.16589198094678,21.537067215718064
-158.16489725530244,21.537648061173034
-158.1639580435772,21.537643356232167
-158.16422311200546,21.536912397366507
-158.1649053523479,21.536232336249878
-158.16553621663905,21.53540558722439
-158.16512047912505,21.535110577193528
-158.16344380259312,21.53632266857805
-158.16229589262878,21.53631690773477
-158.1616497649052,21.537018891390243
-158.16108824321438,21.53762894732406
-158.16024214635587,21.53784424613386
-158.1601476288919,21.537868296928202
-158.15926311448743,21.53742448379967
-158.1591088220678,21.53703315814556
-158.15837920787152,21.536883013845955
-158.15822660703313,21.53619876655271
-158.15812673720353,21.53541716677773
-158.15755644806254,21.534779619591074
-158.15630309119067,21.534968559331148
-158.1561431668843,21.53555360908222
-158.15655775895974,21.536043872073556
-158.15549329709714,21.53632261482116
-158.15546032575804,21.536331248731077
-158.15436886535798,21.53559343311694
-158.1536392242117,21.53544326794507
-158.15298955320887,21.5350006137121
-158.1520999766459,21.53543545111985
-158.15121327214953,21.53538213251762
-158.15069404472732,21.53494009634219
-158.14996554785668,21.534594647594364
-158.14949000242277,21.53561743810057
-158.14787163057446,21.535755643035998
-158.148035290149,21.534535991478382
-158.14796661189368,21.534471028968742
-158.1476720432129,21.534192397890337
-158.14730765728038,21.534044108335426
-158.1475742648226,21.533069065828343
-158.1471446507662,21.53320060509596
-158.1465997589947,21.53416230785953
-158.14636401564445,21.534424074131593
-158.146156578368,21.534654408376706
-158.14607459494746,21.534745440880094
-158.14477445323473,21.534006495652825
-158.1442521038621,21.534101472357477
-158.14367587017617,21.53448906230422
-158.14330633299653,21.53521944920599
-158.1425193809684,21.535947690231097
-158.141527732172,21.535991398791264
-158.1409560794045,21.535597909224776
-158.1408041362811,21.534816033741752
-158.140709283475,21.533204512237514
-158.14102691033526,21.532425054480143
-158.14144951647577,21.53154848114567
-158.14082337898085,21.531545257826338
-158.1403486433302,21.53242156086274
-158.13966602365872,21.53315032626023
-158.13945128114,21.53417439437421
-158.13837503876647,21.535291669078248
-158.13785441079358,21.53509370606241
-158.13744276941105,21.534115212232706
-158.13744824779636,21.533187683356143
-158.13792275451607,21.532360197091204
-158.13803111858192,21.531677282021604
-158.13724531447411,21.53221023109949
-158.1363476673909,21.534011928257165
-158.1356116984621,21.53493567291035
-158.13493020014113,21.535469150287852
-158.13341677302225,21.535510103933454
-158.13237992175152,21.534381885590772
-158.13264832915604,21.533113987958146
-158.13265354784747,21.532235267956295
-158.13323095896527,21.53165241254918
-158.13339705146248,21.530042244429975
-158.13250223229517,21.53135573401002
-158.13045723943927,21.533053735949743
-158.1301409698458,21.533589096890797
-158.13013660809213,21.5343213569131
-158.1296116311787,21.534855628523882
-158.12872436031995,21.534899842509887
-158.12784346423095,21.5338700290892
-158.12743131078759,21.532989127645713
-158.12780266926907,21.53196585918507
-158.12843226247168,21.53138333086678
-158.1290117242897,21.530458801029162
-158.12912336910833,21.529238900011975
-158.12944250233724,21.528215354253195
-158.12934108464594,21.52772666099588
-158.1290758227149,21.528457559789118
-158.12823521910423,21.529429534758812
-158.12807285896727,21.530405088144658
-158.127552302774,21.53020709412131
-158.12734706662687,21.5296201649979
-158.12735289943,21.528643830958973
-158.12699267396496,21.527812008642233
-158.12682359591597,21.529910354176884
-158.1264012401892,21.53073808061855
-158.12556611901053,21.53078251468721
-158.12435644142712,21.532387198186026
-158.12367813818918,21.53238363659857
-158.12337214100143,21.531210355751778
-158.1218555299674,21.531788235080768
-158.12202145460216,21.53022688993733
-158.1226498893767,21.529839650270745
-158.12276012103732,21.52886382905668
-158.12239753540817,21.5284225678859
-158.12176877306234,21.52885861402346
-158.1213956593354,21.53017478674446
-158.1203471407086,21.53099916139055
-158.11930600869547,21.53060312362918
-158.11968182981724,21.528847616308585
-158.11910967714056,21.528551706352637
-158.11853575950173,21.528548675426634
-158.11790521674789,21.529277624620494
-158.1166453723224,21.53054024905038
-158.1159386528475,21.53092705071323
-158.1152541477264,21.531948629884596
-158.1145752961356,21.532042646108906
-158.11463308355775,21.531115399813576
-158.11632189825303,21.527951110636028
-158.11689935485848,21.52736834997327
-158.11711542250075,21.526149011979452
-158.11717407503573,21.52507530431842
-158.11686456311975,21.524487848860726
-158.11618781410058,21.524240184427885
-158.11434162590544,21.527550066444398
-158.1124079320487,21.52807679980979
-158.11125386531583,21.529095864304402
-158.11067786588703,21.529434530966654
-158.1099465226866,21.529577094521347
-158.10890662316896,21.528985690512368
-158.10801904862095,21.529078602394087
-158.10723404968167,21.52946494827716
-158.10682680969558,21.52780293703096
-158.10678091497041,21.526777484603592
-158.10699646860408,21.525655813790223
-158.10789322375808,21.52404958632343
-158.10846980338306,21.523613277202042
-158.1093561538938,21.52371566444828
-158.10987937633325,21.52347437493277
-158.109988754689,21.522645022629533
-158.10973887134907,21.522378924155642
-158.10978008338296,21.522271705157458
-158.11117643513396,21.518638793466938
-158.11130057871117,21.518315797070183
-158.111584776471,21.51757636667729
-158.1121628015498,21.516895969407468
-158.11240513708026,21.51683257387768
-158.11264742021984,21.516769191425393
-158.1128943752328,21.516704586331684
-158.11331913036332,21.51678144968616
-158.1137282331381,21.51685547925098
-158.11419863367135,21.51671151246199
-158.11455573391856,21.516482815124803
-158.11579677408446,21.516119887255048
-158.1161543315855,21.51588993378465
-158.1165201390413,21.515838325111233
-158.1169204453951,21.515959195279756
-158.117401005817,21.515874794122837
-158.11764434409378,21.51558707064229
-158.1194410383158,21.515262478350355
-158.11995860648804,21.515460828680496
-158.12031419408007,21.515556890790627
-158.12071654223084,21.515602481882016
-158.12097935141267,21.515676318208058
-158.12139614000213,21.515895869145993
-158.1215820909341,21.51587511206102
-158.1219011007915,21.515615962238236
-158.1222507749305,21.515407689595683
-158.12270871234347,21.51522172085387
-158.12328239461607,21.515101565786594
-158.12413421151038,21.515052730883866
-158.12457660304193,21.514905491145875
-158.12496550456032,21.514610475551237
-158.1254774600011,21.514453763085648
-158.1263907222455,21.514516506563684
-158.1265847163902,21.514445069276515
-158.12699787848263,21.513976290044006
-158.12744465090773,21.51365572183837
-158.1277366754651,21.513518608299457
-158.12830188910496,21.5134324658927
-158.12920160402567,21.513169087333917
-158.13016023540743,21.5128085260159
-158.13042989344413,21.513180577991175
-158.13076115565488,21.513986376664377
-158.13103870691614,21.514794115383204
-158.13126377705788,21.51580262642282
-158.13169763878258,21.516001378475465
-158.13210042599843,21.5157460317713
-158.13236819643268,21.51546511563252
-158.1330936665446,21.515030749449053
-158.13382032355906,21.51469574399294
-158.13481672080866,21.514359912862794
-158.13570677536916,21.51425162194656
-158.13622132784218,21.51437399519172
-158.13662821176865,21.514547801633572
-158.13690018138172,21.51477282713754
-158.13744327669886,21.515071523629878
-158.13752732342917,21.51545144049629
-158.13763788543974,21.515727548668988
-158.13796345973503,21.515876064555272
-158.13831144810138,21.515496157969086
-158.13860470663093,21.515088880877656
-158.138870642927,21.514606897930733
-158.1398718950466,21.51477473202475
-158.14027436436626,21.514469629258038
-158.14097495174215,21.51426093974383
-158.14167533844227,21.51407933383665
-158.1420533952201,21.514024807845704
-158.1421915757875,21.514427610887722
-158.14227972056543,21.51523669079992
-158.1425330340135,21.5163719270808
-158.14261902732702,21.516928031229817
-158.1423541358451,21.517536545002837
-158.1417935720752,21.518249667685712
-158.14152867514534,21.518858142680372
-158.14172090555778,21.51920926956104
-158.14220618597244,21.519080767472566
-158.14287844170738,21.518770310209668
-158.14336583578753,21.518894816823156
-158.14351086166917,21.519979798459687
-158.14373519583273,21.520913874709866
-158.14379874734908,21.522000695375073
-158.14380706924499,21.52293595739739
-158.14397588992088,21.5236664816295
-158.14440539935367,21.523386375433827
-158.14480533167705,21.522801123995254
-158.145149581629,21.522039406778323
-158.145280776403,21.52158377401343
-158.14613718189332,21.52064179931542
-158.14670152998747,21.5203081646349
-158.14693288866673,21.519977950180515
-158.14702164081126,21.51985127537427
-158.14725920484483,21.519267444541367
-158.14746917709246,21.518559210596756
-158.1476261968174,21.518026922417864
-158.14773133340842,21.517697636158296
-158.1479443345092,21.517289858298177
-158.14843013265016,21.517287785869808
-158.14881109977733,21.51756304591098
-158.1495399418895,21.517480909862563
-158.15040654127836,21.517776661260243
-158.15124917399186,21.51835241232651
-158.15157843285152,21.518905234936376
-158.15201886949527,21.519838105586643
-158.15226986935966,21.52067061833542
-158.15259790713998,21.521121780983144
-158.15308764789893,21.521472111483387
-158.15381898650875,21.52169263183353
-158.15392653817673,21.521668346844592
-158.15411037486163,21.521084196450605
-158.15342638197973,21.52010494988078
-158.15298683792506,21.519323436794288
-158.15273829562798,21.518694204613528
-158.1526261416323,21.51826445402363
-158.1528397538327,21.517960582015284
-158.15409037614907,21.518834279224023
-158.15495822481643,21.519231665971365
-158.15579769862936,21.519427894644327
-158.15663594230995,21.51952242380671
-158.15744303268127,21.519162779955806
-158.15746115029089,21.518126071010087
-158.15742666209235,21.517317194091873
-158.15739521433315,21.516811068792734
-158.15763536201376,21.51650506676363
-158.1583656840511,21.516576469362242
-158.1589879054987,21.516672191356612
-158.15950129388108,21.516692835366083
-158.15998644941175,21.516589073649655
-158.16044432410092,21.516408388411396
-158.1611495361877,21.516755264513566
-158.16144889908955,21.51695552129804
-158.16196398625286,21.517204301366828
-158.16242446057046,21.517301456000634
-158.16310004270633,21.517347733069062
-158.16358504457168,21.517167174886723
-158.1639334870961,21.516911403853644
-158.16444321745064,21.516527662382686
-158.16476416808328,21.516120401951703
-158.16478999429862,21.516054258686136
-158.16492389032294,21.51571134144132
-158.16492645858136,21.51570476452683
-158.16500183680253,21.515511713684774
-158.16510319118626,21.514778081385355
-158.16485076043878,21.513769361276342
-158.16441082300256,21.51293821393039
-158.1638382051244,21.51230966881426
-158.1631854834444,21.511859157492562
-158.1625619152505,21.511587264845325
-158.16193960956878,21.511516386540684
-158.16137175313963,21.51141869168129
-158.16080298370517,21.511273550264526
-158.16026075263522,21.511024630552093
-158.1598245764955,21.51059776859804
-158.15944175554947,21.510121513854287
-158.1591126409024,21.50954158201687
-158.15878355533823,21.50896394402613
-158.1584294227032,21.50863688689101
-158.15783320707183,21.50843964243392
-158.15739918654913,21.508265787581053
-158.1566957263161,21.5081448200297
-158.15586494544488,21.50808346191177
-158.15577656603344,21.50807693432172
-158.1548846895483,21.50798209393475
-158.15418197544417,21.50793790483672
-158.15355983418146,21.507842166350066
-158.1530721219516,21.50766802795077
-158.15284969373198,21.50701184064285
-158.15295114107346,21.506278216677746
-158.1531349860769,21.505696360233728
-158.1535081174268,21.505135778481744
-158.15428601681964,21.504498167105755
-158.1549593600152,21.504291499051885
-158.15576930226294,21.504259404692984
-158.15676835506838,21.504176343276058
-158.1577914002329,21.503813270387322
-158.1579744391617,21.50315458160889
-158.15732117524243,21.502602430478927
-158.1564813651183,21.50228194779239
-158.15561515584938,21.502137544337472
-158.15472257323708,21.501965915520458
-158.15418102539277,21.501818596026897
-158.15380086865972,21.50162017480726
-158.1535805750758,21.50111534858446
-158.15370932657316,21.500458647036105
-158.15410638304888,21.499518699866506
-158.15422735849674,21.499345955292405
-158.15447997008906,21.498985241936683
-158.15478461333188,21.498492148917354
-158.15509213778662,21.497994388848674
-158.1551484867055,21.497874874679347
-158.15546294674616,21.497207912155265
-158.1554916813856,21.49708814821211
-158.15564534691086,21.4964476809865
-158.15566805077307,21.495966732191352
-158.1556118110522,21.495619527343056
-158.1557882886789,21.495568368861143
-158.1558705219514,21.49554453068748
-158.15633747791907,21.495986248503073
-158.15677576908226,21.496867216274087
-158.15729685326406,21.496967501476007
-158.15744885312728,21.497749367360914
-158.15802377951786,21.497556991521492
-158.15844726040424,21.496485095324022
-158.15912540330032,21.49648851014264
-158.1595502747541,21.495172533464554
-158.16043590023787,21.49537226125534
-158.16148114186757,21.495035770309144
-158.1626458964278,21.493174343180492
-158.1629095683537,21.493281424544076
-158.16342845675968,21.493909629307918
-158.16370391442774,21.494486953114713
-158.1637546879325,21.494747806390137
-158.16381700070997,21.495067941884397
-158.16427945828895,21.49544293245907
-158.16457938865597,21.495744801699516
-158.1645568562028,21.496200923013777
-158.1641281102764,21.496582741727938
-158.16379530533473,21.49666337004387
-158.1635892141688,21.496713299194557
-158.163592770604,21.497142500235697
-158.16366764857742,21.497228513242078
-158.163920626946,21.497519112201275
-158.16411502626562,21.498125448911466
-158.16401254602766,21.498732557013806
-158.16350492732983,21.499394143108066
-158.16318879279555,21.500230610001008
-158.16308725984877,21.50098907185632
-158.16325618327895,21.50172176433256
-158.16377431456385,21.502273253162475
-158.16461551002894,21.50267274905147
-158.1657232077727,21.50268727815092
-158.16685495807488,21.502401513708687
-158.16788318951396,21.502594106672692
-158.16880297187595,21.502763543882224
-158.16961485770167,21.50290986642845
-158.17018765911254,21.503511268308422
-158.17059778276064,21.504064457489566
-158.1710067062001,21.50451598674457
-158.1720852563672,21.504254753312825
-158.172970581719,21.50359049713152
-158.17420740468722,21.502973157383476
-158.17558420739354,21.502887298692634
-158.1761395984577,21.502862851754642
-158.17701521128708,21.502824305836228
-158.17774254684537,21.50256585596452
-158.1777781667164,21.50226477360067
-158.17782165181399,21.502928117146045
-158.17672230811965,21.503606184001967
-158.17609219901206,21.504335368431555
-158.17598513710703,21.504823046850195
-158.1759818365004,21.505408856601257
-158.17419834900596,21.507133137268564
-158.17325601936165,21.507714337022104
-158.17195269004696,21.50756141373808
-158.17064295598044,21.50853128895105
-158.1692358239957,21.508280209472623
-158.16788252103123,21.507736455892072
-158.16731090128795,21.507343056579852
-158.16647591912883,21.507387700295194
-158.16584602210995,21.508068035500393
-158.16578773807126,21.50914177449706
-158.16646395312603,21.509486891741243
-158.16797516804692,21.509787322576127
-158.16828541537862,21.51027707387308
-158.16828263830243,21.510765265936918
-158.16885038809642,21.511842123566183
-158.16877745571745,21.51548851176988
-158.16877745167943,21.51548922186711
-158.16898732991456,21.515772983990804
-158.1696122950725,21.51597136890299
-158.16934725574544,21.516702340043093
-158.17002355379017,21.517047443851183
-158.17070230837783,21.516953161518202
-158.17071825001065,21.516968237908475
-158.17116937677883,21.51739487728116
-158.1713410565372,21.51676643231762
-158.17143575255386,21.51641978867299
-158.1717515576609,21.515933149986477
-158.1727971610582,21.51554778462683
-158.1735275544908,21.515551402267054
-158.17358468212683,21.514672929315996
-158.17441970511254,21.514628251352796
-158.17494082653621,21.514728483522536
-158.1755682348443,21.514487461822565
-158.17603806229303,21.51444097184071
-158.17676534097774,21.514932523924585
-158.17676570145585,21.514932767691054
-158.17728819975204,21.514788878025577
-158.1772979793399,21.514744344493288
-158.17744883791624,21.51405737858406
-158.17933107538002,21.51333435051869
-158.17974541300305,21.51387340274264
-158.17974754963794,21.513877453908442
-158.17991226748953,21.513820691987032
-158.1843326692158,21.512297339221096
-158.18492059809222,21.512707629026526
-158.1849741644272,21.513264005345228
-158.18505457783291,21.513402722489314
-158.18546218148435,21.513677993741478
-158.18605626890422,21.513622127136568
-158.18641237618817,21.513599305579504
-158.18629722950368,21.51365701963152
-158.18583343700112,21.513778580191424
-158.1858237881817,21.513778533136094
-158.1849518548165,21.514316346378248
-158.18470160483162,21.514400897421506
-158.18391814274023,21.514648295944134
-158.18388828784524,21.514672522941385
-158.18388784686178,21.514672520785602
-158.18359721225067,21.51485179493623
-158.18310011917802,21.515312110145288
-158.182473162571,21.515820869869664
-158.1806203507425,21.515706681571544
-158.18019412649244,21.51590500521807
-158.17997997053996,21.515900916625505
-158.17994534904372,21.515918012191836
-158.17993207482138,21.515917946982583
-158.17992242587496,21.515917899581734
-158.1787257129923,21.516372646504074
-158.1780888436465,21.516482521415856
-158.17731883395413,21.517256858974328
-158.1758684220929,21.518328115944296
-158.1758537677803,21.51833715321644
-158.1758390928778,21.51834123540756
-158.17487227249097,21.518606511293783
-158.17463338886412,21.51875647288072
-158.1746226145985,21.518761585177753
-158.1746271476908,21.518760390944944
-158.1742442020514,21.519000787869345
-158.1740147894396,21.519141172221882
-158.17401473841008,21.519150201131307
-158.1740050697228,21.519150153284944
-158.17397975250665,21.519287815822146
-158.1739850052138,21.51928556578276
-158.17394312249243,21.51949939498754
-158.1739445219403,21.51950131801208
-158.17391699622598,21.519636629260365
-158.17390892967296,21.519675128610416
-158.17390911793987,21.5196753578161
-158.17390586558128,21.51969134618616
-158.17390545434037,21.51969172663907
-158.17390544480676,21.51969341319754
-158.17390263433876,21.51970722890491
-158.17398002009946,21.52004717003642
-158.1741816048381,21.520386641612394
-158.17396253075103,21.520545554953635
-158.1738296581523,21.520775289604675
-158.17462796409802,21.52238521500532
-158.17485939880342,21.523177966711234
-158.17487035393862,21.523219902568574
-158.1748761523828,21.52323535450114
-158.1748789055082,21.523244784331702
-158.1749390137494,21.523925009523477
-158.1751338025584,21.524581032897064
-158.17598155290673,21.52566261858837
-158.1762432092109,21.52634323741635
-158.17597819692546,21.52712746434188
-158.17590793962094,21.527491403896533
-158.1759123931823,21.527709465990263
-158.17589196073968,21.527805089997265
-158.17592995226602,21.527934590985026
-158.17607688830225,21.527950870397593
-158.17607660713585,21.527953884721764
-158.17603345115174,21.52841644556355
-158.17657999941963,21.529094482792413
-158.1773946069001,21.529543373549977
-158.17769664668003,21.530021448332196
-158.17829740923315,21.530724577702298
-158.17884286832916,21.531276082739588
-158.17963299587396,21.53200267513896
-158.18063920369977,21.532728031316477
-158.18148320839083,21.53342779240825
-158.18211162837898,21.534155837483326
-158.18252178064864,21.534733791903772
-158.1830115685436,21.535111051146238
-158.18360623833846,21.535079992078277
-158.18474098442164,21.53506955547719
-158.18552426897202,21.53508907164675
-158.18625545332398,21.535259643338925
-158.1868824341954,21.535811483832276
-158.18720942671936,21.53616314397985
-158.1880183024584,21.53592751325516
-158.18907013531032,21.53574272054316
-158.19001548728113,21.535708754433387
-158.19077569121288,21.536082752518386
-158.19145380160228,21.536354696919567
-158.192220705242,21.536460361128412
-158.19222471692402,21.536504092776205
-158.19222396717424,21.53663961970381
-158.19222316757015,21.536784157274813
-158.1922231176205,21.53679318620619
-158.1922223678582,21.536928713129093
-158.19222156824068,21.537073250695034
-158.19222151829015,21.5370822796261
-158.1922401193335,21.537208852489968
-158.1922870615905,21.537453016506458
-158.1923050131087,21.537697021535994
-158.19232507153424,21.53784017006207
-158.19237070409926,21.53848480924137
-158.19206709877773,21.53908271174918
-158.19310261683927,21.540080435777774
-158.19343570389955,21.541393175139536
-158.19319552261393,21.541697178069047
-158.19334792467976,21.541781025025344
-158.19343113048333,21.541858311631653
-158.19353135534922,21.541881942826006
-158.193802875747,21.542031324120366
-158.19387392440794,21.542113418340566
-158.1938752920259,21.542116884721068
-158.19389171715832,21.54238670821286
-158.19389147968585,21.542429710369397
-158.19389634586867,21.542462750431902
-158.19390593068186,21.542620204396425
-158.19429552671713,21.542743797726654
-158.19426308244385,21.543578278103674
-158.19054928046168,21.54400213990364
-158.18945122969868,21.54365229781527
-158.1893651644072,21.543442001908282
-158.18935371329883,21.543441748447506
-158.18883458924725,21.543339620250062
-158.18852196193222,21.543231839186202
-158.18840218186608,21.543216176809377
-158.1868905735026,21.54295715449034
-158.18688769985167,21.542956589147682
-158.18675967491774,21.542491566079203
-158.18634278461425,21.54239191372874
-158.1856638794483,21.542486218903395
-158.185458430819,21.541899391366147
-158.18530410274275,21.541508087953957
-158.18457494075074,21.54126044005367
-158.1841044827713,21.541404604651245
-158.1832690739447,21.54149813445213
-158.18206593959403,21.54202925259709
-158.18102067466367,21.542317053276236
-158.18059913043936,21.54304727162496
-158.18091058350822,21.543341694885772
-158.18183648818803,21.543346240051818
-158.18190200529162,21.543346561473463
-158.1826360930273,21.542715527836247
-158.18310351191465,21.54310836746691
-158.1823136988435,21.54437380022524
-158.1817333404107,21.54437095346167
-158.1812178901363,21.54436842339088
-158.18095864387723,21.544074219904907
-158.18022673571394,21.54431474448476
-158.17965027730597,21.54475126807107
-158.1792880265453,21.54421247157689
-158.1784007039111,21.544256948447465
-158.17798157606666,21.544547776263016
-158.17782039076766,21.545376925655347
-158.1773526650755,21.54503287934008</coordinates></LinearRing></outerBoundaryIs></Polygon></Placemark>
<Placemark>
<ExtendedData>
  <Data name="Island"><value>OA</value></Data>
  <Data name="Status"><value>Final</value></Data>
  <Data name="COMNAME"><value>Haha</value></Data>
  <Data name="SCINAME"><value>Cyanea superba</value></Data>
  <Data name="SPCODE"><value>Q1V6</value></Data>
  <Data name="VIPCODE"><value>P01</value></Data>
  <Data name="UNIT"><value>02</value></Data>
  <Data name="SUBUNIT"><value></value></Data>
  <Data name="UNITNAME"><value>Lowland Mesic</value></Data>
  <Data name="SUBUNITNAM"><value></value></Data>
  <Data name="LEADOFFICE"><value>FF01EPIF00</value></Data>
  <Data name="COOPOFFICE"><value>None</value></Data>
  <Data name="COOPOFMORE"><value></value></Data>
  <Data name="FEDREG"><value>77FR57647</value></Data>
  <Data name="PUBDATE"><value>20120918</value></Data>
  <Data name="EFFECTDATE"><value>20121018</value></Data>
  <Data name="VACATEDATE"><value></value></Data>
  <Data name="ACCURACY"><value></value></Data></ExtendedData>
  <Polygon>
<outerBoundaryIs>
  <LinearRing><coordinates>-158.09944120141554,21.468081809994327
-158.098868724542,21.467883453086404
-158.0982947474148,21.46792920514824
-158.09772227316398,21.46773084438881
-158.09735990964273,21.467289496352233
-158.0968929647553,21.46689642907278
-158.09590901009517,21.46576828315901
-158.09570311859503,21.46532777750179
-158.09554966948306,21.464838783355727
-158.096488998848,21.46474620539372
-158.09670000732427,21.464356798709673
-158.096232431963,21.46406134446842
-158.09550234975774,21.464057397882367
-158.0948261777697,21.463760848497554
-158.0941524616262,21.46307372688253
-158.0937358280399,21.462973814753873
-158.09338656115435,21.463065186111603
-158.09335320529473,21.46286083217654
-158.0933230677493,21.462661072390706
-158.09286460879034,21.462277676892153
-158.09286184022702,21.462276445240555
-158.09216970218753,21.461880801449638
-158.0906104092072,21.461269009214256
-158.08987989596034,21.461215968102202
-158.0883165039726,21.46197787031187
-158.08734061612645,21.461995343334955
-158.08723510346437,21.462053271860007
-158.085508079198,21.46219774220166
-158.08540651567165,21.462205515302156
-158.08474676569804,21.462127726908168
-158.08474333991478,21.462128574314434
-158.08473392932402,21.46212745430379
-158.0844915679549,21.462190842756563
-158.08441601415635,21.46220952842578
-158.0834710417819,21.4620778719603
-158.0831825377767,21.461943333637016
-158.0829991119219,21.461921698100934
-158.08291533525176,21.461905177518997
-158.08289618516795,21.461694250064483
-158.08253357606287,21.461301716128784
-158.08159671014224,21.461003684267478
-158.08149606378305,21.460417276827627
-158.0815194265099,21.46021093354098
-158.0816389212302,21.45986864437708
-158.08238934294667,21.4593481606527
-158.08307249074215,21.45852200637324
-158.08343875730506,21.458328740514748
-158.08312707131302,21.458131759884562
-158.0825549156607,21.45816141040151
-158.08293657494983,21.457463466067807
-158.08339892801382,21.456629783774037
-158.08416708026365,21.45571250391854
-158.08433828969754,21.455505346022623
-158.08199822534485,21.455182706906726
-158.082000890237,21.454757063162234
-158.08174291878407,21.454316256025223
-158.0822152824229,21.453830684068915
-158.0824769202736,21.453685654920015
-158.08190788653485,21.4529502510186
-158.0819631182309,21.45246235344576
-158.0813901162008,21.45236159079981
-158.08134592012203,21.452357582751105
-158.08148999954935,21.451897791825175
-158.0816355559872,21.45145885285768
-158.08094516365094,21.45118107654792
-158.08060430742245,21.45104242255256
-158.08067061388394,21.450673378582202
-158.0820316021563,21.449850912035917
-158.08224201476557,21.449559138135417
-158.08281836446565,21.44912294292549
-158.08292938872253,21.44804953148297
-158.08371156243282,21.448053815773026
-158.08433973141535,21.447666707656968
-158.08523443129107,21.44635346026413
-158.08565431920627,21.445916399251338
-158.08655169241675,21.444163802865965
-158.0867151206972,21.44304186424969
-158.08614640791822,21.442257667141156
-158.08552070130042,21.442254250026284
-158.08494864923938,21.44200700453597
-158.08479708503378,21.441225082885712
-158.08412378204142,21.440489116487424
-158.08454856801532,21.439270954262913
-158.08564473937497,21.439081671332794
-158.08622012525018,21.438791884331074
-158.08685193212423,21.43781896469544
-158.08696105303656,21.437038466037176
-158.0873290815853,21.436552270586557
-158.08759098661758,21.436358424406514
-158.08754492638798,21.435381769136303
-158.08800695413157,21.434488347123686
-158.0884794149813,21.434444030995397
-158.08883316803045,21.434506241924804
-158.0891548894667,21.43462862558928
-158.08952993326375,21.434806753858076
-158.09004767785717,21.435395389373088
-158.09060651970333,21.435137579654995
-158.0909186545732,21.43575384801828
-158.09146318647626,21.4362561445978
-158.09238790988292,21.437006804149753
-158.0931752989575,21.437533058877325
-158.09339270235864,21.437683402135356
-158.09390934679735,21.43810871832171
-158.09472318782917,21.438558324603733
-158.09526520213439,21.43878047028536
-158.09575277136918,21.439031701824756
-158.09629494199348,21.43922901520226
-158.09665749667653,21.44059107934499
-158.09693034786721,21.440942800837174
-158.0972051063837,21.44147296880306
-158.09720970484273,21.442003936968092
-158.09705172994617,21.442484256886434
-158.09721707032307,21.44286248561474
-158.09741060521523,21.443367310912
-158.0973889173712,21.44395005474916
-158.0972579800322,21.444455461639834
-158.09699247172412,21.44496454602045
-158.09678141664713,21.44554623065046
-158.0968666831558,21.446000812096365
-158.09721933381192,21.446226481975728
-158.09719517864602,21.4465290497594
-158.09730816137767,21.44708539554471
-158.0971526864011,21.447845705758862
-158.09703337407515,21.44813069480722
-158.09688759287863,21.4484789052354
-158.09654349043092,21.449213292671196
-158.096523651561,21.449251189404002
-158.09627072092536,21.449391403429633
-158.09609346390604,21.45005453163074
-158.09601143143826,21.450204105150497
-158.09577351655827,21.450735797683883
-158.0952296684455,21.450310376187062
-158.0949604761687,21.45043987990374
-158.09455706099823,21.45061828011963
-158.09428978335424,21.450923972262085
-158.09405169382816,21.45148278529181
-158.09392248671148,21.452191279380123
-158.09373823891445,21.45272329604965
-158.09326014632205,21.453662473302806
-158.0930779261865,21.45444746351619
-158.09316274630297,21.45487710269164
-158.09370712274264,21.45540414875236
-158.09438550724846,21.45572643164986
-158.09536033809036,21.456097791981826
-158.09601040770193,21.45632052129673
-158.0966873089844,21.456493695515707
-158.09736138708595,21.456438681130287
-158.09768870804731,21.456763386380118
-158.09809665981265,21.45711561269365
-158.09853282410722,21.45759221495306
-158.09907771112637,21.458143929038652
-158.0993233090613,21.458420787916378
-158.0998948925426,21.45894551842292
-158.10070939115937,21.459496383576766
-158.10114452772578,21.459846528983828
-158.1017699560258,21.46034671250076
-158.102033354364,21.460579394195907
-158.1024232609616,21.460923828486663
-158.10296921903816,21.461602054848047
-158.10319105584057,21.462307960833787
-158.10317738683747,21.463850574032854
-158.1029878215336,21.46377506729455
-158.10282629170413,21.463853279727385
-158.10253176460517,21.464082090581844
-158.1023445612959,21.464311513801707
-158.10215868982124,21.464717085938425
-158.10194776218685,21.46527612940698
-158.10184229203594,21.465553394007614
-158.1016602613695,21.466415289822557
-158.10163935225916,21.467072453623878
-158.10175365692504,21.467804870704573
-158.10208188952856,21.468283215815294
-158.10240936934352,21.468684734952912
-158.10263571976225,21.468934566082314
-158.10085838438482,21.4705296350559
-158.10047018718438,21.47038185499622
-158.10047498260633,21.469600787813256
-158.10037365581803,21.469112041221052
-158.09975053151126,21.4686693322746
-158.09944120141554,21.468081809994327</coordinates></LinearRing></outerBoundaryIs></Polygon></Placemark>
<Placemark>
<ExtendedData>
  <Data name="Island"><value>OA</value></Data>
  <Data name="Status"><value>Final</value></Data>
  <Data name="COMNAME"><value>Haha</value></Data>
  <Data name="SCINAME"><value>Cyanea superba</value></Data>
  <Data name="SPCODE"><value>Q1V6</value></Data>
  <Data name="VIPCODE"><value>P01</value></Data>
  <Data name="UNIT"><value>03</value></Data>
  <Data name="SUBUNIT"><value></value></Data>
  <Data name="UNITNAME"><value>Lowland Mesic</value></Data>
  <Data name="SUBUNITNAM"><value></value></Data>
  <Data name="LEADOFFICE"><value>FF01EPIF00</value></Data>
  <Data name="COOPOFFICE"><value>None</value></Data>
  <Data name="COOPOFMORE"><value></value></Data>
  <Data name="FEDREG"><value>77FR57647</value></Data>
  <Data name="PUBDATE"><value>20120918</value></Data>
  <Data name="EFFECTDATE"><value>20121018</value></Data>
  <Data name="VACATEDATE"><value></value></Data>
  <Data name="ACCURACY"><value></value></Data></ExtendedData>
  <Polygon>
<outerBoundaryIs>
  <LinearRing><coordinates>-158.08848210724017,21.427209433864164
-158.0886948964578,21.42652711512912
-158.0891399584849,21.426560043533186
-158.08945830924122,21.426039747977377
-158.08942785696843,21.426042935506377
-158.0889622333479,21.425454545121475
-158.0874020684276,21.424811421723792
-158.087091660043,21.424419182759145
-158.08573580307544,21.424460596959
-158.08526506950656,21.42470210964427
-158.08437811946837,21.424794919138527
-158.08390920977774,21.424743546124752
-158.08386043365468,21.424206267497432
-158.0842817815717,21.423525095463393
-158.08511747095218,21.423285541901834
-158.08569431439574,21.422751679244143
-158.0884769053483,21.419642424729407
-158.09067778448863,21.417848072647864
-158.09094327582716,21.417068417093358
-158.09105148902407,21.416434335638446
-158.09379344368185,21.413397995484736
-158.0936299843489,21.41256716818644
-158.09140185070152,21.410358239607845
-158.09093449362885,21.410062775659124
-158.09010100430095,21.409960596832256
-158.08932024239095,21.409761082143923
-158.08869796367912,21.409220686358545
-158.08927201434437,21.40912618811157
-158.09062742777763,21.409133547814
-158.0913590861788,21.408844586140734
-158.09198736607826,21.408408633189218
-158.09271721020997,21.408412585568378
-158.09365617784962,21.408320010205173
-158.094333299727,21.408421325988446
-158.09480156095225,21.408570320832954
-158.09532048075505,21.408963671472005
-158.09667559498385,21.40901978995779
-158.0968355965987,21.408434828609206
-158.09720051919913,21.408436794643386
-158.09735807992936,21.408242368891475
-158.09741773424486,21.40702219664349
-158.09766179128957,21.406460177697
-158.0979293938245,21.406532740355175
-158.0980759117037,21.407969289019125
-158.09770504606422,21.408755384961886
-158.09762792273483,21.409235958348244
-158.09768645592513,21.40971722548829
-158.09782814425068,21.41049927125312
-158.0978499807207,21.411033799087686
-158.09786218980895,21.411332655177063
-158.09784685750947,21.411409801581904
-158.09822395640305,21.411566733400917
-158.09842978697148,21.412007236364442
-158.0979072516203,21.412199698702583
-158.09800793922835,21.412786063884088
-158.09746126076226,21.412861829987893
-158.09733865525007,21.413206313390212
-158.09726783803532,21.413399957215677
-158.09706097700172,21.41396559805721
-158.09699580742566,21.414143796512576
-158.0970041671065,21.415130574528675
-158.09716824867732,21.415593352688003
-158.09788462302348,21.41588544156044
-158.09824477016357,21.4166684773669
-158.09772105821733,21.417056206680318
-158.0974434084626,21.41705471128226
-158.09741315831548,21.417310603216414
-158.09736717362935,21.417699596351436
-158.09735165891843,21.417830836904763
-158.0971428361578,21.418339489644445
-158.09745286328592,21.418275254606254
-158.09792059908193,21.418521894283714
-158.09791820087617,21.418912429990485
-158.09744746440435,21.41915397819455
-158.09687307812274,21.41929734770562
-158.0966342306387,21.419296060003543
-158.0964487871232,21.419607491506184
-158.0958074326617,21.420344644848054
-158.09527203130088,21.420779113566294
-158.09508317080727,21.42093232958222
-158.09494746816912,21.421093982121654
-158.0945491702587,21.4215684421828
-158.09428283266834,21.422025454358515
-158.09420437830252,21.4223277660956
-158.09431514524667,21.422655968036743
-158.0946939629262,21.422730323065796
-158.0942674926192,21.423340224363063
-158.0938123918172,21.423798620058033
-158.09306338723508,21.42458746675349
-158.09271741087508,21.425145844662246
-158.0924250995528,21.425704512836212
-158.09229411120418,21.426212099683696
-158.09227125826186,21.426693185413136
-158.09195167378917,21.42717488256002
-158.09144097251692,21.427456716261464
-158.09066243156076,21.427942655205747
-158.09042337360415,21.428375089342968
-158.09026849532162,21.42923494026968
-158.0903856920557,21.43027252213981
-158.09047784542682,21.4307338789995
-158.08989985984218,21.429804585791157
-158.08964489226864,21.428875603460206
-158.0889174101835,21.428481100050345
-158.08835237083903,21.428405008883406
-158.08816198991022,21.42837937054662
-158.08816360771138,21.428118866805068
-158.0881659311958,21.427744724678554
-158.08848210724017,21.427209433864164</coordinates></LinearRing></outerBoundaryIs></Polygon></Placemark></Document></kml>